<?xml version="1.0" encoding="UTF-8" standalone="no"?><gpx xmlns="http://www.topografix.com/GPX/1/1" xmlns:xsi="http://www.w3.org/2001/XMLSchema-instance" creator="Sports Tracker" version="1.1" xsi:schemaLocation="http://www.topografix.com/GPX/1/1 http://www.topografix.com/GPX/1/1/gpx.xsd"><metadata><name>35km champex -&gt; Fouly</name><author><name>valentine300</name></author></metadata><wpt lat="46.027233" lon="7.120575"><name>Begin</name><desc>Auto-generated</desc><type>Begin</type></wpt><wpt lat="46.07207" lon="7.078098"><name>Tournez à droite sur Route du</name><type>Right_turn</type></wpt><wpt lat="46.077415" lon="7.082686"><name>Tournez à droite sur Rue des </name><type>Right_turn</type></wpt><wpt lat="46.08002" lon="7.087437"><name>Tournez à droite sur Rue des </name><type>Right_turn</type></wpt><wpt lat="46.080334" lon="7.088389"><name>Tournez à gauche</name><type>Left_turn</type></wpt><wpt lat="46.08055" lon="7.088285"><name>Tournez à droite sur Rue Prin</name><type>Right_turn</type></wpt><wpt lat="46.08067" lon="7.088749"><name>Restez sur la droite sur Rue P</name><type>Right_at_fork_turn</type></wpt><wpt lat="46.08086" lon="7.089004"><name>Tournez à droite sur Route du</name><type>Right_turn</type></wpt><wpt lat="46.08128" lon="7.108687"><name>Waypoint 1</name><desc>Auto-generated</desc><type>Waypoint</type></wpt><wpt lat="46.079662" lon="7.119031"><name>Restez sur la droite sur N21, </name><type>Right_at_fork_turn</type></wpt><wpt lat="46.07807" lon="7.135506"><name>Restez sur la droite sur Route</name><type>Right_at_fork_turn</type></wpt><wpt lat="46.07792" lon="7.137205"><name>Au rond-point, prenez la 2e so</name><type>Roundabout_exit_2_turn</type></wpt><wpt lat="46.078983" lon="7.145338"><name>Au rond-point, prenez la 2e so</name><type>Roundabout_exit_2_turn</type></wpt><wpt lat="46.07907" lon="7.152766"><name>Au rond-point, prenez la 1e so</name><type>Roundabout_exit_1_turn</type></wpt><wpt lat="46.03951" lon="7.147043"><name>Restez sur la droite sur Route</name><type>Right_at_fork_turn</type></wpt><wpt lat="46.039284" lon="7.146978"><name>Au rond-point, prenez la 2e so</name><type>Roundabout_exit_2_turn</type></wpt><wpt lat="46.038406" lon="7.146938"><name>Restez sur la droite sur Route</name><type>Right_at_fork_turn</type></wpt><wpt lat="46.032257" lon="7.14542"><name>Tournez légèrement à droite</name><type>Slight_right_turn</type></wpt><wpt lat="46.018543" lon="7.131548"><name>Restez sur la gauche sur Route</name><type>Left_at_fork_turn</type></wpt><wpt lat="45.99719" lon="7.126932"><name>Waypoint 2</name><desc>Auto-generated</desc><type>Waypoint</type></wpt><wpt lat="45.970078" lon="7.11736"><name>Tournez à droite sur Branche </name><type>Right_turn</type></wpt><wpt lat="45.933228" lon="7.098634"><name>Tournez à gauche sur Montée </name><type>Left_turn</type></wpt><wpt lat="45.933365" lon="7.100047"><name>End</name><desc>Auto-generated</desc><type>End</type></wpt><rte><rtept lat="46.027233" lon="7.120575"><ele>1469.2</ele></rtept><rtept lat="46.027447" lon="7.120467"><ele>1469.85</ele></rtept><rtept lat="46.02776" lon="7.120406"><ele>1469.18</ele></rtept><rtept lat="46.027843" lon="7.120367"><ele>1469.28</ele></rtept><rtept lat="46.027943" lon="7.120281"><ele>1469.63</ele></rtept><rtept lat="46.02807" lon="7.120124"><ele>1470.03</ele></rtept><rtept lat="46.028114" lon="7.120033"><ele>1469.76</ele></rtept><rtept lat="46.02818" lon="7.119851"><ele>1469.45</ele></rtept><rtept lat="46.02822" lon="7.119597"><ele>1469.38</ele></rtept><rtept lat="46.028255" lon="7.119002"><ele>1468.74</ele></rtept><rtept lat="46.028294" lon="7.118765"><ele>1468.62</ele></rtept><rtept lat="46.02834" lon="7.118607"><ele>1468.61</ele></rtept><rtept lat="46.028408" lon="7.118458"><ele>1468.51</ele></rtept><rtept lat="46.028515" lon="7.118281"><ele>1468.25</ele></rtept><rtept lat="46.028885" lon="7.117927"><ele>1468.07</ele></rtept><rtept lat="46.028984" lon="7.117813"><ele>1467.99</ele></rtept><rtept lat="46.02909" lon="7.117666"><ele>1467.85</ele></rtept><rtept lat="46.029224" lon="7.117435"><ele>1467.64</ele></rtept><rtept lat="46.029278" lon="7.117371"><ele>1467.59</ele></rtept><rtept lat="46.02936" lon="7.117291"><ele>1467.57</ele></rtept><rtept lat="46.029766" lon="7.117043"><ele>1467.0</ele></rtept><rtept lat="46.029865" lon="7.116942"><ele>1467.0</ele></rtept><rtept lat="46.02996" lon="7.116822"><ele>1467.0</ele></rtept><rtept lat="46.03005" lon="7.116684"><ele>1467.39</ele></rtept><rtept lat="46.030216" lon="7.1164"><ele>1467.9</ele></rtept><rtept lat="46.03031" lon="7.116208"><ele>1468.0</ele></rtept><rtept lat="46.03044" lon="7.115875"><ele>1468.01</ele></rtept><rtept lat="46.030624" lon="7.115251"><ele>1468.0</ele></rtept><rtept lat="46.03087" lon="7.114043"><ele>1469.8</ele></rtept><rtept lat="46.030933" lon="7.113777"><ele>1470.65</ele></rtept><rtept lat="46.031094" lon="7.113242"><ele>1474.3</ele></rtept><rtept lat="46.031376" lon="7.112429"><ele>1479.7</ele></rtept><rtept lat="46.031433" lon="7.112236"><ele>1480.65</ele></rtept><rtept lat="46.031525" lon="7.111884"><ele>1481.57</ele></rtept><rtept lat="46.031593" lon="7.111582"><ele>1481.41</ele></rtept><rtept lat="46.031937" lon="7.109904"><ele>1481.04</ele></rtept><rtept lat="46.031944" lon="7.109833"><ele>1481.1</ele></rtept><rtept lat="46.031944" lon="7.109712"><ele>1481.09</ele></rtept><rtept lat="46.0319" lon="7.109162"><ele>1482.04</ele></rtept><rtept lat="46.0319" lon="7.108944"><ele>1482.63</ele></rtept><rtept lat="46.031956" lon="7.108517"><ele>1483.85</ele></rtept><rtept lat="46.031956" lon="7.108435"><ele>1484.77</ele></rtept><rtept lat="46.031948" lon="7.108385"><ele>1485.68</ele></rtept><rtept lat="46.03192" lon="7.108308"><ele>1487.03</ele></rtept><rtept lat="46.03186" lon="7.108222"><ele>1487.93</ele></rtept><rtept lat="46.031803" lon="7.108179"><ele>1488.54</ele></rtept><rtept lat="46.031567" lon="7.10804"><ele>1491.1</ele></rtept><rtept lat="46.031498" lon="7.107989"><ele>1491.97</ele></rtept><rtept lat="46.031467" lon="7.107946"><ele>1492.31</ele></rtept><rtept lat="46.03145" lon="7.107899"><ele>1492.49</ele></rtept><rtept lat="46.03144" lon="7.107844"><ele>1492.7</ele></rtept><rtept lat="46.03145" lon="7.107756"><ele>1493.25</ele></rtept><rtept lat="46.031544" lon="7.107322"><ele>1494.78</ele></rtept><rtept lat="46.03161" lon="7.107074"><ele>1495.69</ele></rtept><rtept lat="46.03164" lon="7.107001"><ele>1496.05</ele></rtept><rtept lat="46.031715" lon="7.106877"><ele>1496.14</ele></rtept><rtept lat="46.03181" lon="7.106786"><ele>1496.17</ele></rtept><rtept lat="46.032078" lon="7.106641"><ele>1495.56</ele></rtept><rtept lat="46.032192" lon="7.106567"><ele>1495.03</ele></rtept><rtept lat="46.032276" lon="7.106496"><ele>1494.53</ele></rtept><rtept lat="46.032383" lon="7.106359"><ele>1494.1</ele></rtept><rtept lat="46.032425" lon="7.106274"><ele>1493.95</ele></rtept><rtept lat="46.032475" lon="7.106132"><ele>1493.72</ele></rtept><rtept lat="46.03249" lon="7.106048"><ele>1493.55</ele></rtept><rtept lat="46.032497" lon="7.105949"><ele>1493.23</ele></rtept><rtept lat="46.032482" lon="7.105657"><ele>1492.8</ele></rtept><rtept lat="46.032413" lon="7.104767"><ele>1491.08</ele></rtept><rtept lat="46.032413" lon="7.10456"><ele>1491.16</ele></rtept><rtept lat="46.032444" lon="7.104362"><ele>1491.24</ele></rtept><rtept lat="46.032475" lon="7.104268"><ele>1491.25</ele></rtept><rtept lat="46.032524" lon="7.10417"><ele>1491.08</ele></rtept><rtept lat="46.032578" lon="7.104085"><ele>1491.99</ele></rtept><rtept lat="46.032825" lon="7.103758"><ele>1494.0</ele></rtept><rtept lat="46.032925" lon="7.103615"><ele>1493.49</ele></rtept><rtept lat="46.033028" lon="7.103441"><ele>1493.07</ele></rtept><rtept lat="46.03312" lon="7.103321"><ele>1492.72</ele></rtept><rtept lat="46.033222" lon="7.103213"><ele>1492.2</ele></rtept><rtept lat="46.033356" lon="7.103123"><ele>1490.73</ele></rtept><rtept lat="46.03393" lon="7.102873"><ele>1487.32</ele></rtept><rtept lat="46.03406" lon="7.102851"><ele>1486.04</ele></rtept><rtept lat="46.034405" lon="7.102842"><ele>1482.77</ele></rtept><rtept lat="46.034683" lon="7.102872"><ele>1479.6</ele></rtept><rtept lat="46.035007" lon="7.102884"><ele>1475.86</ele></rtept><rtept lat="46.035126" lon="7.102913"><ele>1474.61</ele></rtept><rtept lat="46.035393" lon="7.103016"><ele>1471.87</ele></rtept><rtept lat="46.03546" lon="7.103031"><ele>1471.14</ele></rtept><rtept lat="46.03552" lon="7.103027"><ele>1470.56</ele></rtept><rtept lat="46.0356" lon="7.102992"><ele>1469.74</ele></rtept><rtept lat="46.0364" lon="7.102408"><ele>1462.48</ele></rtept><rtept lat="46.036472" lon="7.102362"><ele>1461.5</ele></rtept><rtept lat="46.03657" lon="7.102327"><ele>1460.84</ele></rtept><rtept lat="46.036896" lon="7.102263"><ele>1458.2</ele></rtept><rtept lat="46.037018" lon="7.102271"><ele>1457.3</ele></rtept><rtept lat="46.037254" lon="7.102338"><ele>1455.47</ele></rtept><rtept lat="46.03734" lon="7.102331"><ele>1454.84</ele></rtept><rtept lat="46.03739" lon="7.102309"><ele>1454.45</ele></rtept><rtept lat="46.03746" lon="7.102252"><ele>1453.88</ele></rtept><rtept lat="46.037834" lon="7.101787"><ele>1450.52</ele></rtept><rtept lat="46.038223" lon="7.101328"><ele>1447.0</ele></rtept><rtept lat="46.038418" lon="7.101063"><ele>1444.36</ele></rtept><rtept lat="46.038506" lon="7.100959"><ele>1442.88</ele></rtept><rtept lat="46.038696" lon="7.100784"><ele>1440.92</ele></rtept><rtept lat="46.03879" lon="7.100681"><ele>1440.03</ele></rtept><rtept lat="46.038883" lon="7.100538"><ele>1439.17</ele></rtept><rtept lat="46.038933" lon="7.100428"><ele>1438.43</ele></rtept><rtept lat="46.038967" lon="7.10031"><ele>1437.71</ele></rtept><rtept lat="46.039097" lon="7.099677"><ele>1434.01</ele></rtept><rtept lat="46.039333" lon="7.098762"><ele>1428.01</ele></rtept><rtept lat="46.0394" lon="7.098546"><ele>1426.52</ele></rtept><rtept lat="46.039486" lon="7.098324"><ele>1424.92</ele></rtept><rtept lat="46.03978" lon="7.09776"><ele>1419.32</ele></rtept><rtept lat="46.04002" lon="7.097391"><ele>1415.97</ele></rtept><rtept lat="46.040173" lon="7.097164"><ele>1414.18</ele></rtept><rtept lat="46.04038" lon="7.096908"><ele>1411.99</ele></rtept><rtept lat="46.040485" lon="7.096805"><ele>1410.97</ele></rtept><rtept lat="46.040634" lon="7.096691"><ele>1409.82</ele></rtept><rtept lat="46.04078" lon="7.096626"><ele>1408.76</ele></rtept><rtept lat="46.041092" lon="7.096532"><ele>1406.11</ele></rtept><rtept lat="46.04149" lon="7.096388"><ele>1403.11</ele></rtept><rtept lat="46.041603" lon="7.096374"><ele>1402.05</ele></rtept><rtept lat="46.041763" lon="7.096394"><ele>1400.59</ele></rtept><rtept lat="46.041992" lon="7.096483"><ele>1398.46</ele></rtept><rtept lat="46.042084" lon="7.096507"><ele>1397.65</ele></rtept><rtept lat="46.04221" lon="7.096517"><ele>1396.5</ele></rtept><rtept lat="46.042313" lon="7.096504"><ele>1395.56</ele></rtept><rtept lat="46.04244" lon="7.096466"><ele>1394.42</ele></rtept><rtept lat="46.0427" lon="7.096321"><ele>1392.19</ele></rtept><rtept lat="46.0429" lon="7.096182"><ele>1390.45</ele></rtept><rtept lat="46.043037" lon="7.096056"><ele>1389.22</ele></rtept><rtept lat="46.04311" lon="7.095957"><ele>1388.44</ele></rtept><rtept lat="46.043167" lon="7.095856"><ele>1387.8</ele></rtept><rtept lat="46.043205" lon="7.095745"><ele>1387.14</ele></rtept><rtept lat="46.043324" lon="7.095322"><ele>1384.78</ele></rtept><rtept lat="46.04339" lon="7.095144"><ele>1383.71</ele></rtept><rtept lat="46.043503" lon="7.094865"><ele>1381.98</ele></rtept><rtept lat="46.04358" lon="7.094699"><ele>1381.02</ele></rtept><rtept lat="46.043674" lon="7.094536"><ele>1379.96</ele></rtept><rtept lat="46.043926" lon="7.094222"><ele>1377.49</ele></rtept><rtept lat="46.04406" lon="7.094098"><ele>1376.46</ele></rtept><rtept lat="46.04421" lon="7.093998"><ele>1375.49</ele></rtept><rtept lat="46.044727" lon="7.093691"><ele>1370.87</ele></rtept><rtept lat="46.044807" lon="7.093652"><ele>1370.1</ele></rtept><rtept lat="46.045006" lon="7.093599"><ele>1368.55</ele></rtept><rtept lat="46.045277" lon="7.093554"><ele>1366.64</ele></rtept><rtept lat="46.045387" lon="7.093554"><ele>1365.83</ele></rtept><rtept lat="46.04548" lon="7.09357"><ele>1365.17</ele></rtept><rtept lat="46.045624" lon="7.093613"><ele>1364.15</ele></rtept><rtept lat="46.04598" lon="7.093742"><ele>1361.83</ele></rtept><rtept lat="46.046062" lon="7.093745"><ele>1361.12</ele></rtept><rtept lat="46.046124" lon="7.093721"><ele>1360.8</ele></rtept><rtept lat="46.046196" lon="7.093637"><ele>1360.19</ele></rtept><rtept lat="46.04624" lon="7.093543"><ele>1359.83</ele></rtept><rtept lat="46.046432" lon="7.092927"><ele>1357.58</ele></rtept><rtept lat="46.04647" lon="7.092813"><ele>1356.75</ele></rtept><rtept lat="46.04656" lon="7.09265"><ele>1355.78</ele></rtept><rtept lat="46.04663" lon="7.092548"><ele>1354.77</ele></rtept><rtept lat="46.046913" lon="7.092233"><ele>1351.29</ele></rtept><rtept lat="46.047417" lon="7.091583"><ele>1345.25</ele></rtept><rtept lat="46.047543" lon="7.091465"><ele>1343.89</ele></rtept><rtept lat="46.0479" lon="7.091235"><ele>1340.9</ele></rtept><rtept lat="46.048" lon="7.091143"><ele>1340.07</ele></rtept><rtept lat="46.04807" lon="7.091058"><ele>1339.27</ele></rtept><rtept lat="46.04816" lon="7.090919"><ele>1338.33</ele></rtept><rtept lat="46.04821" lon="7.090804"><ele>1337.84</ele></rtept><rtept lat="46.048233" lon="7.09073"><ele>1337.64</ele></rtept><rtept lat="46.048294" lon="7.09033"><ele>1337.15</ele></rtept><rtept lat="46.04835" lon="7.090095"><ele>1337.02</ele></rtept><rtept lat="46.048424" lon="7.089877"><ele>1337.06</ele></rtept><rtept lat="46.048676" lon="7.089348"><ele>1336.49</ele></rtept><rtept lat="46.048965" lon="7.088778"><ele>1334.48</ele></rtept><rtept lat="46.04908" lon="7.088591"><ele>1333.84</ele></rtept><rtept lat="46.049305" lon="7.088318"><ele>1331.72</ele></rtept><rtept lat="46.04932" lon="7.088268"><ele>1331.3</ele></rtept><rtept lat="46.049324" lon="7.088225"><ele>1330.99</ele></rtept><rtept lat="46.049316" lon="7.088196"><ele>1330.73</ele></rtept><rtept lat="46.0493" lon="7.088176"><ele>1330.4</ele></rtept><rtept lat="46.04926" lon="7.088162"><ele>1329.73</ele></rtept><rtept lat="46.049213" lon="7.088176"><ele>1329.12</ele></rtept><rtept lat="46.049004" lon="7.088287"><ele>1326.69</ele></rtept><rtept lat="46.048653" lon="7.08852"><ele>1323.14</ele></rtept><rtept lat="46.04843" lon="7.088704"><ele>1320.88</ele></rtept><rtept lat="46.048355" lon="7.088738"><ele>1320.23</ele></rtept><rtept lat="46.047737" lon="7.088823"><ele>1314.68</ele></rtept><rtept lat="46.04769" lon="7.088804"><ele>1314.24</ele></rtept><rtept lat="46.04766" lon="7.088767"><ele>1313.87</ele></rtept><rtept lat="46.04765" lon="7.088721"><ele>1313.55</ele></rtept><rtept lat="46.04767" lon="7.088632"><ele>1312.96</ele></rtept><rtept lat="46.0477" lon="7.088577"><ele>1312.52</ele></rtept><rtept lat="46.047764" lon="7.088495"><ele>1311.73</ele></rtept><rtept lat="46.048096" lon="7.088147"><ele>1307.72</ele></rtept><rtept lat="46.04829" lon="7.087833"><ele>1304.78</ele></rtept><rtept lat="46.048367" lon="7.087747"><ele>1303.83</ele></rtept><rtept lat="46.048595" lon="7.087529"><ele>1301.13</ele></rtept><rtept lat="46.049103" lon="7.086919"><ele>1294.73</ele></rtept><rtept lat="46.049225" lon="7.086804"><ele>1293.39</ele></rtept><rtept lat="46.049297" lon="7.086766"><ele>1292.72</ele></rtept><rtept lat="46.049458" lon="7.086727"><ele>1291.31</ele></rtept><rtept lat="46.049576" lon="7.086682"><ele>1290.24</ele></rtept><rtept lat="46.049793" lon="7.08655"><ele>1288.21</ele></rtept><rtept lat="46.04991" lon="7.086511"><ele>1287.01</ele></rtept><rtept lat="46.050007" lon="7.08651"><ele>1286.01</ele></rtept><rtept lat="46.050076" lon="7.086527"><ele>1285.26</ele></rtept><rtept lat="46.0503" lon="7.086647"><ele>1282.91</ele></rtept><rtept lat="46.05035" lon="7.086651"><ele>1282.43</ele></rtept><rtept lat="46.050365" lon="7.086641"><ele>1282.25</ele></rtept><rtept lat="46.05039" lon="7.086595"><ele>1281.84</ele></rtept><rtept lat="46.05039" lon="7.08657"><ele>1281.66</ele></rtept><rtept lat="46.050358" lon="7.086475"><ele>1280.9</ele></rtept><rtept lat="46.050285" lon="7.086365"><ele>1279.76</ele></rtept><rtept lat="46.050198" lon="7.08628"><ele>1278.6</ele></rtept><rtept lat="46.049847" lon="7.086059"><ele>1274.68</ele></rtept><rtept lat="46.04979" lon="7.086046"><ele>1274.02</ele></rtept><rtept lat="46.04969" lon="7.086073"><ele>1272.94</ele></rtept><rtept lat="46.049656" lon="7.086072"><ele>1272.71</ele></rtept><rtept lat="46.04962" lon="7.086051"><ele>1272.32</ele></rtept><rtept lat="46.049603" lon="7.086023"><ele>1271.91</ele></rtept><rtept lat="46.049587" lon="7.085964"><ele>1271.0</ele></rtept><rtept lat="46.049603" lon="7.08589"><ele>1269.92</ele></rtept><rtept lat="46.049633" lon="7.085852"><ele>1269.54</ele></rtept><rtept lat="46.049683" lon="7.08582"><ele>1269.17</ele></rtept><rtept lat="46.049835" lon="7.085788"><ele>1267.6</ele></rtept><rtept lat="46.05001" lon="7.085775"><ele>1265.95</ele></rtept><rtept lat="46.05031" lon="7.08573"><ele>1263.22</ele></rtept><rtept lat="46.050407" lon="7.085753"><ele>1262.31</ele></rtept><rtept lat="46.05064" lon="7.085906"><ele>1259.98</ele></rtept><rtept lat="46.050766" lon="7.085975"><ele>1258.76</ele></rtept><rtept lat="46.05082" lon="7.085992"><ele>1258.29</ele></rtept><rtept lat="46.050915" lon="7.086003"><ele>1257.47</ele></rtept><rtept lat="46.050953" lon="7.085995"><ele>1257.08</ele></rtept><rtept lat="46.05111" lon="7.08592"><ele>1255.11</ele></rtept><rtept lat="46.05181" lon="7.08549"><ele>1247.54</ele></rtept><rtept lat="46.051956" lon="7.085435"><ele>1246.03</ele></rtept><rtept lat="46.052273" lon="7.08534"><ele>1242.87</ele></rtept><rtept lat="46.05237" lon="7.085285"><ele>1241.89</ele></rtept><rtept lat="46.052593" lon="7.084982"><ele>1238.97</ele></rtept><rtept lat="46.052715" lon="7.084842"><ele>1237.67</ele></rtept><rtept lat="46.05284" lon="7.084718"><ele>1235.59</ele></rtept><rtept lat="46.052933" lon="7.084635"><ele>1234.37</ele></rtept><rtept lat="46.053104" lon="7.084508"><ele>1232.5</ele></rtept><rtept lat="46.05335" lon="7.084358"><ele>1229.65</ele></rtept><rtept lat="46.05348" lon="7.084255"><ele>1228.2</ele></rtept><rtept lat="46.05379" lon="7.083896"><ele>1224.29</ele></rtept><rtept lat="46.054073" lon="7.083743"><ele>1221.01</ele></rtept><rtept lat="46.054253" lon="7.083698"><ele>1219.05</ele></rtept><rtept lat="46.054287" lon="7.083668"><ele>1218.61</ele></rtept><rtept lat="46.054302" lon="7.083622"><ele>1218.22</ele></rtept><rtept lat="46.0543" lon="7.08357"><ele>1217.81</ele></rtept><rtept lat="46.054276" lon="7.08354"><ele>1217.46</ele></rtept><rtept lat="46.054222" lon="7.083527"><ele>1216.89</ele></rtept><rtept lat="46.05379" lon="7.083625"><ele>1212.01</ele></rtept><rtept lat="46.053562" lon="7.083659"><ele>1209.53</ele></rtept><rtept lat="46.05344" lon="7.08364"><ele>1208.49</ele></rtept><rtept lat="46.053234" lon="7.083548"><ele>1206.42</ele></rtept><rtept lat="46.053135" lon="7.083527"><ele>1205.55</ele></rtept><rtept lat="46.053066" lon="7.083526"><ele>1204.99</ele></rtept><rtept lat="46.052963" lon="7.083544"><ele>1204.18</ele></rtept><rtept lat="46.052837" lon="7.083594"><ele>1203.99</ele></rtept><rtept lat="46.052784" lon="7.083584"><ele>1203.81</ele></rtept><rtept lat="46.052765" lon="7.08356"><ele>1203.35</ele></rtept><rtept lat="46.05276" lon="7.083528"><ele>1202.69</ele></rtept><rtept lat="46.052765" lon="7.08348"><ele>1201.94</ele></rtept><rtept lat="46.05278" lon="7.083442"><ele>1201.53</ele></rtept><rtept lat="46.05296" lon="7.083344"><ele>1198.63</ele></rtept><rtept lat="46.053165" lon="7.083178"><ele>1196.59</ele></rtept><rtept lat="46.053226" lon="7.083154"><ele>1196.05</ele></rtept><rtept lat="46.05349" lon="7.08311"><ele>1193.06</ele></rtept><rtept lat="46.053738" lon="7.083025"><ele>1190.26</ele></rtept><rtept lat="46.05403" lon="7.08296"><ele>1186.87</ele></rtept><rtept lat="46.054253" lon="7.082853"><ele>1184.37</ele></rtept><rtept lat="46.05435" lon="7.082778"><ele>1183.15</ele></rtept><rtept lat="46.054485" lon="7.082622"><ele>1181.24</ele></rtept><rtept lat="46.054585" lon="7.082526"><ele>1179.91</ele></rtept><rtept lat="46.054844" lon="7.082351"><ele>1176.84</ele></rtept><rtept lat="46.054874" lon="7.082311"><ele>1176.42</ele></rtept><rtept lat="46.05489" lon="7.082252"><ele>1175.99</ele></rtept><rtept lat="46.05488" lon="7.082201"><ele>1175.64</ele></rtept><rtept lat="46.05485" lon="7.082171"><ele>1175.32</ele></rtept><rtept lat="46.054806" lon="7.082155"><ele>1174.88</ele></rtept><rtept lat="46.054302" lon="7.082308"><ele>1170.28</ele></rtept><rtept lat="46.05421" lon="7.082313"><ele>1169.68</ele></rtept><rtept lat="46.05411" lon="7.082277"><ele>1169.18</ele></rtept><rtept lat="46.054047" lon="7.082239"><ele>1168.87</ele></rtept><rtept lat="46.05396" lon="7.082159"><ele>1168.4</ele></rtept><rtept lat="46.053875" lon="7.082065"><ele>1167.53</ele></rtept><rtept lat="46.053795" lon="7.082"><ele>1167.09</ele></rtept><rtept lat="46.05365" lon="7.081914"><ele>1166.44</ele></rtept><rtept lat="46.053593" lon="7.081899"><ele>1166.01</ele></rtept><rtept lat="46.053505" lon="7.0819"><ele>1165.57</ele></rtept><rtept lat="46.053436" lon="7.081873"><ele>1165.05</ele></rtept><rtept lat="46.053402" lon="7.081827"><ele>1164.48</ele></rtept><rtept lat="46.053394" lon="7.081798"><ele>1164.09</ele></rtept><rtept lat="46.05339" lon="7.081737"><ele>1163.22</ele></rtept><rtept lat="46.053406" lon="7.081693"><ele>1162.61</ele></rtept><rtept lat="46.053417" lon="7.081679"><ele>1162.39</ele></rtept><rtept lat="46.053493" lon="7.081646"><ele>1161.46</ele></rtept><rtept lat="46.053707" lon="7.081633"><ele>1159.16</ele></rtept><rtept lat="46.053963" lon="7.081585"><ele>1156.4</ele></rtept><rtept lat="46.054245" lon="7.081521"><ele>1153.04</ele></rtept><rtept lat="46.05442" lon="7.081467"><ele>1150.99</ele></rtept><rtept lat="46.05459" lon="7.081386"><ele>1149.07</ele></rtept><rtept lat="46.054848" lon="7.081222"><ele>1145.91</ele></rtept><rtept lat="46.055187" lon="7.08108"><ele>1142.37</ele></rtept><rtept lat="46.055534" lon="7.080831"><ele>1138.62</ele></rtept><rtept lat="46.055805" lon="7.080661"><ele>1135.87</ele></rtept><rtept lat="46.055904" lon="7.080631"><ele>1135.05</ele></rtept><rtept lat="46.056084" lon="7.0806"><ele>1133.49</ele></rtept><rtept lat="46.056194" lon="7.080552"><ele>1132.22</ele></rtept><rtept lat="46.056328" lon="7.080461"><ele>1130.78</ele></rtept><rtept lat="46.056576" lon="7.08021"><ele>1127.94</ele></rtept><rtept lat="46.05671" lon="7.080128"><ele>1126.68</ele></rtept><rtept lat="46.056824" lon="7.080094"><ele>1125.58</ele></rtept><rtept lat="46.057148" lon="7.08008"><ele>1122.59</ele></rtept><rtept lat="46.057262" lon="7.080055"><ele>1121.6</ele></rtept><rtept lat="46.057625" lon="7.079885"><ele>1118.23</ele></rtept><rtept lat="46.05776" lon="7.079839"><ele>1116.9</ele></rtept><rtept lat="46.05791" lon="7.079811"><ele>1115.5</ele></rtept><rtept lat="46.05798" lon="7.079788"><ele>1114.88</ele></rtept><rtept lat="46.058125" lon="7.079705"><ele>1113.5</ele></rtept><rtept lat="46.058193" lon="7.079652"><ele>1112.8</ele></rtept><rtept lat="46.058296" lon="7.079543"><ele>1111.77</ele></rtept><rtept lat="46.058487" lon="7.079258"><ele>1109.3</ele></rtept><rtept lat="46.05864" lon="7.079077"><ele>1107.53</ele></rtept><rtept lat="46.05883" lon="7.078892"><ele>1105.64</ele></rtept><rtept lat="46.05906" lon="7.078722"><ele>1103.51</ele></rtept><rtept lat="46.05912" lon="7.078666"><ele>1102.02</ele></rtept><rtept lat="46.05919" lon="7.078591"><ele>1101.07</ele></rtept><rtept lat="46.05931" lon="7.078404"><ele>1099.99</ele></rtept><rtept lat="46.059353" lon="7.078372"><ele>1100.01</ele></rtept><rtept lat="46.05942" lon="7.07836"><ele>1100.02</ele></rtept><rtept lat="46.059486" lon="7.078365"><ele>1099.63</ele></rtept><rtept lat="46.05963" lon="7.078402"><ele>1098.25</ele></rtept><rtept lat="46.05986" lon="7.078494"><ele>1095.97</ele></rtept><rtept lat="46.05993" lon="7.078565"><ele>1095.11</ele></rtept><rtept lat="46.06012" lon="7.078811"><ele>1092.74</ele></rtept><rtept lat="46.06018" lon="7.078844"><ele>1092.02</ele></rtept><rtept lat="46.06029" lon="7.078843"><ele>1091.25</ele></rtept><rtept lat="46.060448" lon="7.078794"><ele>1089.93</ele></rtept><rtept lat="46.0609" lon="7.078681"><ele>1084.99</ele></rtept><rtept lat="46.06115" lon="7.07856"><ele>1083.64</ele></rtept><rtept lat="46.061405" lon="7.078509"><ele>1082.08</ele></rtept><rtept lat="46.061718" lon="7.078467"><ele>1078.82</ele></rtept><rtept lat="46.062057" lon="7.078439"><ele>1074.93</ele></rtept><rtept lat="46.06244" lon="7.078298"><ele>1070.28</ele></rtept><rtept lat="46.06299" lon="7.078178"><ele>1063.19</ele></rtept><rtept lat="46.06334" lon="7.078072"><ele>1058.65</ele></rtept><rtept lat="46.063507" lon="7.078032"><ele>1057.36</ele></rtept><rtept lat="46.063793" lon="7.07801"><ele>1054.64</ele></rtept><rtept lat="46.06423" lon="7.077851"><ele>1050.68</ele></rtept><rtept lat="46.06451" lon="7.077796"><ele>1048.03</ele></rtept><rtept lat="46.06465" lon="7.077748"><ele>1046.88</ele></rtept><rtept lat="46.06479" lon="7.077735"><ele>1045.7</ele></rtept><rtept lat="46.06492" lon="7.077739"><ele>1044.57</ele></rtept><rtept lat="46.06537" lon="7.077785"><ele>1040.43</ele></rtept><rtept lat="46.065643" lon="7.077843"><ele>1037.36</ele></rtept><rtept lat="46.065754" lon="7.07787"><ele>1036.17</ele></rtept><rtept lat="46.065845" lon="7.077908"><ele>1035.09</ele></rtept><rtept lat="46.0659" lon="7.077903"><ele>1034.51</ele></rtept><rtept lat="46.065918" lon="7.077857"><ele>1034.11</ele></rtept><rtept lat="46.065918" lon="7.077807"><ele>1033.74</ele></rtept><rtept lat="46.065907" lon="7.077784"><ele>1033.55</ele></rtept><rtept lat="46.065575" lon="7.077342"><ele>1028.57</ele></rtept><rtept lat="46.065475" lon="7.077265"><ele>1027.76</ele></rtept><rtept lat="46.06527" lon="7.077131"><ele>1026.1</ele></rtept><rtept lat="46.065224" lon="7.077091"><ele>1025.78</ele></rtept><rtept lat="46.065178" lon="7.07703"><ele>1025.19</ele></rtept><rtept lat="46.06516" lon="7.07694"><ele>1025.22</ele></rtept><rtept lat="46.06518" lon="7.076765"><ele>1024.2</ele></rtept><rtept lat="46.06518" lon="7.076673"><ele>1023.37</ele></rtept><rtept lat="46.065113" lon="7.07626"><ele>1019.52</ele></rtept><rtept lat="46.06509" lon="7.076179"><ele>1018.73</ele></rtept><rtept lat="46.065052" lon="7.076138"><ele>1018.07</ele></rtept><rtept lat="46.065002" lon="7.076131"><ele>1017.43</ele></rtept><rtept lat="46.064774" lon="7.076181"><ele>1015.46</ele></rtept><rtept lat="46.06472" lon="7.076176"><ele>1015.24</ele></rtept><rtept lat="46.064518" lon="7.076086"><ele>1011.46</ele></rtept><rtept lat="46.064426" lon="7.076068"><ele>1010.18</ele></rtept><rtept lat="46.064377" lon="7.076095"><ele>1009.61</ele></rtept><rtept lat="46.06424" lon="7.076248"><ele>1007.22</ele></rtept><rtept lat="46.06416" lon="7.076317"><ele>1006.56</ele></rtept><rtept lat="46.06406" lon="7.07635"><ele>1006.48</ele></rtept><rtept lat="46.063774" lon="7.076374"><ele>1004.0</ele></rtept><rtept lat="46.06373" lon="7.076357"><ele>1003.39</ele></rtept><rtept lat="46.063717" lon="7.076308"><ele>1001.91</ele></rtept><rtept lat="46.06372" lon="7.076246"><ele>1001.05</ele></rtept><rtept lat="46.063732" lon="7.076223"><ele>1000.89</ele></rtept><rtept lat="46.06376" lon="7.076205"><ele>1000.68</ele></rtept><rtept lat="46.06403" lon="7.076118"><ele>996.6</ele></rtept><rtept lat="46.06411" lon="7.076059"><ele>995.53</ele></rtept><rtept lat="46.064144" lon="7.076025"><ele>995.17</ele></rtept><rtept lat="46.064198" lon="7.075942"><ele>994.35</ele></rtept><rtept lat="46.064224" lon="7.075895"><ele>993.86</ele></rtept><rtept lat="46.064266" lon="7.075757"><ele>992.46</ele></rtept><rtept lat="46.0643" lon="7.075701"><ele>991.76</ele></rtept><rtept lat="46.064323" lon="7.075685"><ele>991.44</ele></rtept><rtept lat="46.064373" lon="7.075669"><ele>990.7</ele></rtept><rtept lat="46.064552" lon="7.075694"><ele>988.32</ele></rtept><rtept lat="46.06462" lon="7.07569"><ele>987.53</ele></rtept><rtept lat="46.064674" lon="7.075674"><ele>986.92</ele></rtept><rtept lat="46.06474" lon="7.07563"><ele>986.13</ele></rtept><rtept lat="46.06487" lon="7.075495"><ele>984.48</ele></rtept><rtept lat="46.064915" lon="7.075408"><ele>983.7</ele></rtept><rtept lat="46.065" lon="7.0752"><ele>981.63</ele></rtept><rtept lat="46.065018" lon="7.07517"><ele>981.23</ele></rtept><rtept lat="46.06506" lon="7.075137"><ele>980.63</ele></rtept><rtept lat="46.06512" lon="7.075111"><ele>979.88</ele></rtept><rtept lat="46.06524" lon="7.075085"><ele>978.97</ele></rtept><rtept lat="46.065582" lon="7.075054"><ele>975.53</ele></rtept><rtept lat="46.065895" lon="7.07505"><ele>972.98</ele></rtept><rtept lat="46.066044" lon="7.075024"><ele>971.84</ele></rtept><rtept lat="46.066113" lon="7.075028"><ele>971.16</ele></rtept><rtept lat="46.06615" lon="7.075059"><ele>970.76</ele></rtept><rtept lat="46.066174" lon="7.07509"><ele>970.53</ele></rtept><rtept lat="46.06645" lon="7.075763"><ele>965.31</ele></rtept><rtept lat="46.06646" lon="7.075779"><ele>965.17</ele></rtept><rtept lat="46.066498" lon="7.075789"><ele>964.91</ele></rtept><rtept lat="46.066513" lon="7.075779"><ele>964.77</ele></rtept><rtept lat="46.066532" lon="7.075732"><ele>964.23</ele></rtept><rtept lat="46.06653" lon="7.075664"><ele>963.49</ele></rtept><rtept lat="46.066395" lon="7.07531"><ele>960.1</ele></rtept><rtept lat="46.066364" lon="7.075207"><ele>959.18</ele></rtept><rtept lat="46.066364" lon="7.075166"><ele>958.82</ele></rtept><rtept lat="46.06638" lon="7.075117"><ele>958.35</ele></rtept><rtept lat="46.066414" lon="7.075101"><ele>957.92</ele></rtept><rtept lat="46.06645" lon="7.075119"><ele>957.44</ele></rtept><rtept lat="46.066532" lon="7.075355"><ele>955.52</ele></rtept><rtept lat="46.066566" lon="7.075428"><ele>954.92</ele></rtept><rtept lat="46.066807" lon="7.075853"><ele>950.75</ele></rtept><rtept lat="46.066902" lon="7.076069"><ele>949.23</ele></rtept><rtept lat="46.06693" lon="7.076106"><ele>948.77</ele></rtept><rtept lat="46.066944" lon="7.076115"><ele>948.33</ele></rtept><rtept lat="46.066975" lon="7.076104"><ele>946.88</ele></rtept><rtept lat="46.066986" lon="7.076091"><ele>946.31</ele></rtept><rtept lat="46.066994" lon="7.076039"><ele>945.32</ele></rtept><rtept lat="46.066982" lon="7.07597"><ele>944.61</ele></rtept><rtept lat="46.066776" lon="7.075326"><ele>940.64</ele></rtept><rtept lat="46.066704" lon="7.075017"><ele>938.31</ele></rtept><rtept lat="46.066677" lon="7.074857"><ele>937.17</ele></rtept><rtept lat="46.06667" lon="7.074746"><ele>936.43</ele></rtept><rtept lat="46.0667" lon="7.074561"><ele>935.13</ele></rtept><rtept lat="46.06675" lon="7.074418"><ele>933.99</ele></rtept><rtept lat="46.06677" lon="7.074382"><ele>933.66</ele></rtept><rtept lat="46.066795" lon="7.074358"><ele>933.31</ele></rtept><rtept lat="46.066814" lon="7.074359"><ele>933.11</ele></rtept><rtept lat="46.066853" lon="7.074391"><ele>932.67</ele></rtept><rtept lat="46.066868" lon="7.074494"><ele>931.89</ele></rtept><rtept lat="46.066845" lon="7.074624"><ele>930.84</ele></rtept><rtept lat="46.066837" lon="7.074782"><ele>929.5</ele></rtept><rtept lat="46.06686" lon="7.074877"><ele>928.61</ele></rtept><rtept lat="46.067127" lon="7.075457"><ele>922.71</ele></rtept><rtept lat="46.067154" lon="7.075492"><ele>922.31</ele></rtept><rtept lat="46.067173" lon="7.075502"><ele>922.07</ele></rtept><rtept lat="46.067204" lon="7.075485"><ele>921.65</ele></rtept><rtept lat="46.067223" lon="7.075431"><ele>921.14</ele></rtept><rtept lat="46.067215" lon="7.075339"><ele>920.33</ele></rtept><rtept lat="46.067142" lon="7.075028"><ele>917.41</ele></rtept><rtept lat="46.067135" lon="7.074866"><ele>915.8</ele></rtept><rtept lat="46.067146" lon="7.074778"><ele>915.18</ele></rtept><rtept lat="46.067177" lon="7.074703"><ele>914.62</ele></rtept><rtept lat="46.067226" lon="7.07463"><ele>913.88</ele></rtept><rtept lat="46.06729" lon="7.074566"><ele>913.04</ele></rtept><rtept lat="46.067657" lon="7.074328"><ele>908.74</ele></rtept><rtept lat="46.0677" lon="7.074325"><ele>908.09</ele></rtept><rtept lat="46.06772" lon="7.074338"><ele>907.81</ele></rtept><rtept lat="46.06774" lon="7.074383"><ele>907.3</ele></rtept><rtept lat="46.06774" lon="7.07447"><ele>906.3</ele></rtept><rtept lat="46.06772" lon="7.07454"><ele>905.37</ele></rtept><rtept lat="46.067562" lon="7.074806"><ele>902.91</ele></rtept><rtept lat="46.067535" lon="7.074871"><ele>902.51</ele></rtept><rtept lat="46.067528" lon="7.074941"><ele>902.22</ele></rtept><rtept lat="46.06753" lon="7.075021"><ele>901.84</ele></rtept><rtept lat="46.067577" lon="7.07516"><ele>900.94</ele></rtept><rtept lat="46.067757" lon="7.075521"><ele>897.48</ele></rtept><rtept lat="46.067833" lon="7.075697"><ele>896.01</ele></rtept><rtept lat="46.06788" lon="7.075752"><ele>895.44</ele></rtept><rtept lat="46.067932" lon="7.075763"><ele>894.8</ele></rtept><rtept lat="46.067947" lon="7.075751"><ele>894.57</ele></rtept><rtept lat="46.06797" lon="7.075705"><ele>894.09</ele></rtept><rtept lat="46.068012" lon="7.075347"><ele>890.81</ele></rtept><rtept lat="46.06803" lon="7.075244"><ele>890.12</ele></rtept><rtept lat="46.06806" lon="7.075148"><ele>889.31</ele></rtept><rtept lat="46.068096" lon="7.075083"><ele>888.61</ele></rtept><rtept lat="46.06828" lon="7.074809"><ele>885.52</ele></rtept><rtept lat="46.068306" lon="7.074748"><ele>885.05</ele></rtept><rtept lat="46.06831" lon="7.074683"><ele>884.81</ele></rtept><rtept lat="46.068306" lon="7.074636"><ele>884.64</ele></rtept><rtept lat="46.06828" lon="7.074554"><ele>884.2</ele></rtept><rtept lat="46.068214" lon="7.074428"><ele>883.05</ele></rtept><rtept lat="46.06818" lon="7.074334"><ele>882.14</ele></rtept><rtept lat="46.068153" lon="7.074229"><ele>881.26</ele></rtept><rtept lat="46.068104" lon="7.073916"><ele>878.93</ele></rtept><rtept lat="46.06806" lon="7.07375"><ele>877.79</ele></rtept><rtept lat="46.068035" lon="7.073674"><ele>877.22</ele></rtept><rtept lat="46.067978" lon="7.073589"><ele>876.41</ele></rtept><rtept lat="46.067875" lon="7.07351"><ele>875.4</ele></rtept><rtept lat="46.067593" lon="7.073363"><ele>872.24</ele></rtept><rtept lat="46.0674" lon="7.073239"><ele>870.96</ele></rtept><rtept lat="46.067318" lon="7.073164"><ele>870.75</ele></rtept><rtept lat="46.067303" lon="7.07314"><ele>870.9</ele></rtept><rtept lat="46.06729" lon="7.07311"><ele>870.81</ele></rtept><rtept lat="46.067295" lon="7.073058"><ele>869.36</ele></rtept><rtept lat="46.067314" lon="7.073033"><ele>867.92</ele></rtept><rtept lat="46.067352" lon="7.073028"><ele>866.81</ele></rtept><rtept lat="46.067398" lon="7.073052"><ele>866.13</ele></rtept><rtept lat="46.067493" lon="7.073134"><ele>864.97</ele></rtept><rtept lat="46.0676" lon="7.07318"><ele>863.67</ele></rtept><rtept lat="46.068104" lon="7.07328"><ele>858.68</ele></rtept><rtept lat="46.068176" lon="7.073308"><ele>857.98</ele></rtept><rtept lat="46.06821" lon="7.073335"><ele>857.56</ele></rtept><rtept lat="46.068253" lon="7.073386"><ele>857.02</ele></rtept><rtept lat="46.0683" lon="7.073485"><ele>856.24</ele></rtept><rtept lat="46.068394" lon="7.073761"><ele>854.35</ele></rtept><rtept lat="46.06845" lon="7.073912"><ele>853.39</ele></rtept><rtept lat="46.068493" lon="7.073998"><ele>852.83</ele></rtept><rtept lat="46.068768" lon="7.074293"><ele>849.62</ele></rtept><rtept lat="46.0688" lon="7.074341"><ele>849.16</ele></rtept><rtept lat="46.068844" lon="7.074424"><ele>848.84</ele></rtept><rtept lat="46.0689" lon="7.074601"><ele>847.17</ele></rtept><rtept lat="46.068962" lon="7.074725"><ele>845.09</ele></rtept><rtept lat="46.06902" lon="7.074803"><ele>842.98</ele></rtept><rtept lat="46.069054" lon="7.07484"><ele>841.79</ele></rtept><rtept lat="46.0691" lon="7.074867"><ele>840.62</ele></rtept><rtept lat="46.069134" lon="7.074869"><ele>839.83</ele></rtept><rtept lat="46.069237" lon="7.074843"><ele>838.03</ele></rtept><rtept lat="46.06948" lon="7.074736"><ele>836.11</ele></rtept><rtept lat="46.06956" lon="7.074731"><ele>835.26</ele></rtept><rtept lat="46.069668" lon="7.074798"><ele>833.83</ele></rtept><rtept lat="46.069775" lon="7.074901"><ele>832.45</ele></rtept><rtept lat="46.069893" lon="7.074991"><ele>831.49</ele></rtept><rtept lat="46.070034" lon="7.07506"><ele>830.19</ele></rtept><rtept lat="46.07008" lon="7.075101"><ele>829.39</ele></rtept><rtept lat="46.070126" lon="7.075195"><ele>828.24</ele></rtept><rtept lat="46.070133" lon="7.075252"><ele>827.77</ele></rtept><rtept lat="46.07013" lon="7.075388"><ele>826.7</ele></rtept><rtept lat="46.070084" lon="7.075861"><ele>823.22</ele></rtept><rtept lat="46.070087" lon="7.075941"><ele>822.77</ele></rtept><rtept lat="46.0701" lon="7.076"><ele>822.4</ele></rtept><rtept lat="46.070324" lon="7.076659"><ele>819.97</ele></rtept><rtept lat="46.070423" lon="7.076921"><ele>818.58</ele></rtept><rtept lat="46.070675" lon="7.077434"><ele>815.61</ele></rtept><rtept lat="46.07091" lon="7.07782"><ele>813.26</ele></rtept><rtept lat="46.070984" lon="7.077968"><ele>812.48</ele></rtept><rtept lat="46.07105" lon="7.078257"><ele>811.06</ele></rtept><rtept lat="46.07107" lon="7.078323"><ele>810.16</ele></rtept><rtept lat="46.071095" lon="7.078355"><ele>809.74</ele></rtept><rtept lat="46.07114" lon="7.07838"><ele>809.2</ele></rtept><rtept lat="46.071163" lon="7.07838"><ele>808.97</ele></rtept><rtept lat="46.071186" lon="7.078364"><ele>808.72</ele></rtept><rtept lat="46.071205" lon="7.078323"><ele>808.37</ele></rtept><rtept lat="46.071205" lon="7.078271"><ele>808.01</ele></rtept><rtept lat="46.071156" lon="7.078046"><ele>806.26</ele></rtept><rtept lat="46.07115" lon="7.077803"><ele>804.21</ele></rtept><rtept lat="46.07113" lon="7.077542"><ele>802.62</ele></rtept><rtept lat="46.071144" lon="7.07742"><ele>801.66</ele></rtept><rtept lat="46.071247" lon="7.077181"><ele>800.24</ele></rtept><rtept lat="46.0713" lon="7.076953"><ele>799.83</ele></rtept><rtept lat="46.071354" lon="7.07679"><ele>799.53</ele></rtept><rtept lat="46.07137" lon="7.076672"><ele>799.18</ele></rtept><rtept lat="46.07136" lon="7.076461"><ele>798.0</ele></rtept><rtept lat="46.071365" lon="7.076406"><ele>797.58</ele></rtept><rtept lat="46.071392" lon="7.076298"><ele>796.81</ele></rtept><rtept lat="46.071484" lon="7.07603"><ele>795.05</ele></rtept><rtept lat="46.07151" lon="7.075885"><ele>794.0</ele></rtept><rtept lat="46.071514" lon="7.075835"><ele>793.64</ele></rtept><rtept lat="46.071503" lon="7.075736"><ele>792.91</ele></rtept><rtept lat="46.071438" lon="7.075468"><ele>790.76</ele></rtept><rtept lat="46.071415" lon="7.075351"><ele>789.83</ele></rtept><rtept lat="46.07142" lon="7.075258"><ele>789.19</ele></rtept><rtept lat="46.071426" lon="7.07523"><ele>789.0</ele></rtept><rtept lat="46.071453" lon="7.075195"><ele>788.64</ele></rtept><rtept lat="46.0715" lon="7.075194"><ele>788.19</ele></rtept><rtept lat="46.07154" lon="7.075234"><ele>787.53</ele></rtept><rtept lat="46.07156" lon="7.075265"><ele>787.13</ele></rtept><rtept lat="46.07166" lon="7.07549"><ele>784.61</ele></rtept><rtept lat="46.07175" lon="7.075639"><ele>783.35</ele></rtept><rtept lat="46.07178" lon="7.075734"><ele>782.76</ele></rtept><rtept lat="46.071857" lon="7.07638"><ele>779.93</ele></rtept><rtept lat="46.071907" lon="7.076925"><ele>776.9</ele></rtept><rtept lat="46.071915" lon="7.077121"><ele>775.78</ele></rtept><rtept lat="46.07191" lon="7.077283"><ele>774.81</ele></rtept><rtept lat="46.071888" lon="7.077608"><ele>772.68</ele></rtept><rtept lat="46.07189" lon="7.077788"><ele>771.61</ele></rtept><rtept lat="46.071938" lon="7.078064"><ele>769.81</ele></rtept><rtept lat="46.07195" lon="7.078109"><ele>769.4</ele></rtept><rtept lat="46.071964" lon="7.078141"><ele>769.05</ele></rtept><rtept lat="46.071983" lon="7.078161"><ele>768.72</ele></rtept><rtept lat="46.072002" lon="7.078169"><ele>768.28</ele></rtept><rtept lat="46.07204" lon="7.078158"><ele>767.01</ele></rtept><rtept lat="46.072056" lon="7.078142"><ele>766.36</ele></rtept><rtept lat="46.07207" lon="7.078098"><ele>765.81</ele></rtept><rtept lat="46.07222" lon="7.078252"><ele>764.67</ele></rtept><rtept lat="46.072296" lon="7.078294"><ele>763.61</ele></rtept><rtept lat="46.07239" lon="7.078324"><ele>762.47</ele></rtept><rtept lat="46.07257" lon="7.078342"><ele>760.55</ele></rtept><rtept lat="46.07274" lon="7.078372"><ele>758.71</ele></rtept><rtept lat="46.073193" lon="7.078571"><ele>753.47</ele></rtept><rtept lat="46.073326" lon="7.078664"><ele>749.51</ele></rtept><rtept lat="46.073463" lon="7.078717"><ele>747.67</ele></rtept><rtept lat="46.073696" lon="7.078782"><ele>744.52</ele></rtept><rtept lat="46.07379" lon="7.078788"><ele>743.32</ele></rtept><rtept lat="46.073853" lon="7.078812"><ele>742.56</ele></rtept><rtept lat="46.073975" lon="7.078879"><ele>740.9</ele></rtept><rtept lat="46.07416" lon="7.078917"><ele>738.67</ele></rtept><rtept lat="46.074226" lon="7.078951"><ele>737.59</ele></rtept><rtept lat="46.07442" lon="7.079166"><ele>734.42</ele></rtept><rtept lat="46.07453" lon="7.079246"><ele>732.98</ele></rtept><rtept lat="46.07457" lon="7.079295"><ele>732.4</ele></rtept><rtept lat="46.074703" lon="7.07958"><ele>729.84</ele></rtept><rtept lat="46.07482" lon="7.079762"><ele>727.88</ele></rtept><rtept lat="46.074886" lon="7.079883"><ele>726.71</ele></rtept><rtept lat="46.074944" lon="7.080041"><ele>725.46</ele></rtept><rtept lat="46.07497" lon="7.080079"><ele>725.09</ele></rtept><rtept lat="46.075104" lon="7.080202"><ele>723.45</ele></rtept><rtept lat="46.075157" lon="7.080295"><ele>722.53</ele></rtept><rtept lat="46.07518" lon="7.08046"><ele>721.24</ele></rtept><rtept lat="46.07517" lon="7.080711"><ele>719.26</ele></rtept><rtept lat="46.07519" lon="7.080785"><ele>718.59</ele></rtept><rtept lat="46.07535" lon="7.08096"><ele>716.33</ele></rtept><rtept lat="46.0756" lon="7.081363"><ele>711.82</ele></rtept><rtept lat="46.075733" lon="7.081641"><ele>710.07</ele></rtept><rtept lat="46.075813" lon="7.081838"><ele>707.12</ele></rtept><rtept lat="46.07595" lon="7.082255"><ele>703.78</ele></rtept><rtept lat="46.07598" lon="7.082322"><ele>703.14</ele></rtept><rtept lat="46.07604" lon="7.082405"><ele>702.22</ele></rtept><rtept lat="46.076122" lon="7.082448"><ele>701.18</ele></rtept><rtept lat="46.0762" lon="7.082518"><ele>700.17</ele></rtept><rtept lat="46.0763" lon="7.082735"><ele>698.23</ele></rtept><rtept lat="46.076378" lon="7.082977"><ele>696.44</ele></rtept><rtept lat="46.076416" lon="7.083029"><ele>695.88</ele></rtept><rtept lat="46.07651" lon="7.083112"><ele>694.48</ele></rtept><rtept lat="46.07655" lon="7.083163"><ele>693.86</ele></rtept><rtept lat="46.076794" lon="7.083681"><ele>690.22</ele></rtept><rtept lat="46.0769" lon="7.083947"><ele>688.02</ele></rtept><rtept lat="46.076935" lon="7.083999"><ele>687.06</ele></rtept><rtept lat="46.076973" lon="7.084011"><ele>686.44</ele></rtept><rtept lat="46.077" lon="7.084"><ele>686.07</ele></rtept><rtept lat="46.077026" lon="7.083937"><ele>685.52</ele></rtept><rtept lat="46.076996" lon="7.083622"><ele>682.59</ele></rtept><rtept lat="46.076965" lon="7.083465"><ele>680.94</ele></rtept><rtept lat="46.07696" lon="7.083393"><ele>680.21</ele></rtept><rtept lat="46.076977" lon="7.083359"><ele>679.92</ele></rtept><rtept lat="46.077007" lon="7.083343"><ele>679.57</ele></rtept><rtept lat="46.077034" lon="7.083355"><ele>679.3</ele></rtept><rtept lat="46.077087" lon="7.083461"><ele>678.1</ele></rtept><rtept lat="46.077114" lon="7.083548"><ele>677.01</ele></rtept><rtept lat="46.077206" lon="7.083709"><ele>674.69</ele></rtept><rtept lat="46.077248" lon="7.083815"><ele>674.12</ele></rtept><rtept lat="46.07731" lon="7.084073"><ele>673.43</ele></rtept><rtept lat="46.07734" lon="7.084086"><ele>672.78</ele></rtept><rtept lat="46.077354" lon="7.084065"><ele>672.38</ele></rtept><rtept lat="46.07736" lon="7.084024"><ele>671.93</ele></rtept><rtept lat="46.07733" lon="7.083639"><ele>669.39</ele></rtept><rtept lat="46.07732" lon="7.083222"><ele>667.08</ele></rtept><rtept lat="46.07724" lon="7.08282"><ele>664.91</ele></rtept><rtept lat="46.07725" lon="7.082735"><ele>664.55</ele></rtept><rtept lat="46.077305" lon="7.082691"><ele>664.02</ele></rtept><rtept lat="46.077415" lon="7.082686"><ele>662.86</ele></rtept><rtept lat="46.07743" lon="7.082793"><ele>662.38</ele></rtept><rtept lat="46.077465" lon="7.082918"><ele>661.31</ele></rtept><rtept lat="46.077522" lon="7.083051"><ele>659.81</ele></rtept><rtept lat="46.07764" lon="7.083282"><ele>657.14</ele></rtept><rtept lat="46.077675" lon="7.083394"><ele>655.76</ele></rtept><rtept lat="46.077686" lon="7.083526"><ele>653.65</ele></rtept><rtept lat="46.077694" lon="7.083982"><ele>649.42</ele></rtept><rtept lat="46.077724" lon="7.084146"><ele>648.15</ele></rtept><rtept lat="46.07778" lon="7.084315"><ele>646.71</ele></rtept><rtept lat="46.077816" lon="7.084383"><ele>646.05</ele></rtept><rtept lat="46.07787" lon="7.084457"><ele>645.19</ele></rtept><rtept lat="46.077995" lon="7.08456"><ele>643.57</ele></rtept><rtept lat="46.078033" lon="7.084616"><ele>642.94</ele></rtept><rtept lat="46.078094" lon="7.08475"><ele>641.68</ele></rtept><rtept lat="46.078194" lon="7.08503"><ele>639.19</ele></rtept><rtept lat="46.078274" lon="7.08519"><ele>637.62</ele></rtept><rtept lat="46.078472" lon="7.08556"><ele>633.4</ele></rtept><rtept lat="46.07853" lon="7.08566"><ele>632.16</ele></rtept><rtept lat="46.078842" lon="7.086085"><ele>627.79</ele></rtept><rtept lat="46.079006" lon="7.086334"><ele>625.59</ele></rtept><rtept lat="46.07907" lon="7.086406"><ele>625.19</ele></rtept><rtept lat="46.079124" lon="7.086448"><ele>623.86</ele></rtept><rtept lat="46.079174" lon="7.086521"><ele>622.86</ele></rtept><rtept lat="46.079338" lon="7.086898"><ele>620.63</ele></rtept><rtept lat="46.079403" lon="7.087009"><ele>620.25</ele></rtept><rtept lat="46.07957" lon="7.087258"><ele>619.09</ele></rtept><rtept lat="46.07975" lon="7.087461"><ele>618.46</ele></rtept><rtept lat="46.07981" lon="7.087487"><ele>618.13</ele></rtept><rtept lat="46.07988" lon="7.08747"><ele>618.0</ele></rtept><rtept lat="46.08002" lon="7.087437"><ele>618.0</ele></rtept><rtept lat="46.080166" lon="7.087893"><ele>617.89</ele></rtept><rtept lat="46.080334" lon="7.088389"><ele>617.88</ele></rtept><rtept lat="46.08055" lon="7.088285"><ele>615.89</ele></rtept><rtept lat="46.08067" lon="7.088749"><ele>614.65</ele></rtept><rtept lat="46.08069" lon="7.088871"><ele>614.42</ele></rtept><rtept lat="46.080723" lon="7.088937"><ele>613.74</ele></rtept><rtept lat="46.080772" lon="7.088973"><ele>613.27</ele></rtept><rtept lat="46.08086" lon="7.089004"><ele>611.4</ele></rtept><rtept lat="46.080814" lon="7.089668"><ele>611.21</ele></rtept><rtept lat="46.080784" lon="7.090254"><ele>611.68</ele></rtept><rtept lat="46.080803" lon="7.090617"><ele>612.11</ele></rtept><rtept lat="46.080845" lon="7.090997"><ele>612.69</ele></rtept><rtept lat="46.080914" lon="7.091367"><ele>613.38</ele></rtept><rtept lat="46.081" lon="7.091718"><ele>614.28</ele></rtept><rtept lat="46.081104" lon="7.092041"><ele>615.28</ele></rtept><rtept lat="46.081303" lon="7.092548"><ele>615.73</ele></rtept><rtept lat="46.081734" lon="7.093526"><ele>616.82</ele></rtept><rtept lat="46.08197" lon="7.094145"><ele>618.26</ele></rtept><rtept lat="46.082104" lon="7.09456"><ele>618.9</ele></rtept><rtept lat="46.0822" lon="7.095007"><ele>619.26</ele></rtept><rtept lat="46.08227" lon="7.095526"><ele>619.85</ele></rtept><rtept lat="46.082302" lon="7.096051"><ele>621.2</ele></rtept><rtept lat="46.082294" lon="7.096715"><ele>621.86</ele></rtept><rtept lat="46.082207" lon="7.09788"><ele>624.27</ele></rtept><rtept lat="46.082134" lon="7.099226"><ele>627.64</ele></rtept><rtept lat="46.082012" lon="7.101827"><ele>631.44</ele></rtept><rtept lat="46.081963" lon="7.103091"><ele>631.74</ele></rtept><rtept lat="46.08188" lon="7.104788"><ele>635.19</ele></rtept><rtept lat="46.08182" lon="7.105352"><ele>635.5</ele></rtept><rtept lat="46.081757" lon="7.105792"><ele>636.29</ele></rtept><rtept lat="46.081566" lon="7.106698"><ele>637.96</ele></rtept><rtept lat="46.08135" lon="7.107652"><ele>639.7</ele></rtept><rtept lat="46.081303" lon="7.108045"><ele>640.51</ele></rtept><rtept lat="46.081284" lon="7.108485"><ele>641.5</ele></rtept><rtept lat="46.08128" lon="7.108687"><ele>641.97</ele></rtept><rtept lat="46.081272" lon="7.109532"><ele>643.96</ele></rtept><rtept lat="46.08126" lon="7.109821"><ele>644.55</ele></rtept><rtept lat="46.081192" lon="7.110518"><ele>645.54</ele></rtept><rtept lat="46.081066" lon="7.111226"><ele>646.48</ele></rtept><rtept lat="46.08101" lon="7.111481"><ele>646.71</ele></rtept><rtept lat="46.08071" lon="7.112613"><ele>648.76</ele></rtept><rtept lat="46.08064" lon="7.112923"><ele>649.36</ele></rtept><rtept lat="46.08059" lon="7.113189"><ele>649.86</ele></rtept><rtept lat="46.080524" lon="7.113615"><ele>650.36</ele></rtept><rtept lat="46.0805" lon="7.113839"><ele>650.38</ele></rtept><rtept lat="46.0804" lon="7.115421"><ele>655.14</ele></rtept><rtept lat="46.08026" lon="7.116109"><ele>657.05</ele></rtept><rtept lat="46.07997" lon="7.117038"><ele>659.8</ele></rtept><rtept lat="46.07993" lon="7.1172"><ele>660.3</ele></rtept><rtept lat="46.07989" lon="7.117372"><ele>660.82</ele></rtept><rtept lat="46.07983" lon="7.117719"><ele>661.89</ele></rtept><rtept lat="46.079735" lon="7.118399"><ele>664.16</ele></rtept><rtept lat="46.079662" lon="7.119031"><ele>666.19</ele></rtept><rtept lat="46.07961" lon="7.119245"><ele>667.21</ele></rtept><rtept lat="46.07949" lon="7.119796"><ele>667.8</ele></rtept><rtept lat="46.079315" lon="7.120455"><ele>670.27</ele></rtept><rtept lat="46.07899" lon="7.121473"><ele>674.61</ele></rtept><rtept lat="46.078644" lon="7.12272"><ele>674.55</ele></rtept><rtept lat="46.078403" lon="7.123472"><ele>675.95</ele></rtept><rtept lat="46.078312" lon="7.123822"><ele>676.68</ele></rtept><rtept lat="46.078262" lon="7.124058"><ele>677.18</ele></rtept><rtept lat="46.07822" lon="7.124379"><ele>677.9</ele></rtept><rtept lat="46.078205" lon="7.124633"><ele>678.51</ele></rtept><rtept lat="46.0782" lon="7.124964"><ele>679.32</ele></rtept><rtept lat="46.078217" lon="7.125218"><ele>679.93</ele></rtept><rtept lat="46.078262" lon="7.125555"><ele>680.76</ele></rtept><rtept lat="46.07833" lon="7.125873"><ele>681.47</ele></rtept><rtept lat="46.078403" lon="7.126102"><ele>681.96</ele></rtept><rtept lat="46.078552" lon="7.126475"><ele>682.76</ele></rtept><rtept lat="46.07872" lon="7.126784"><ele>683.56</ele></rtept><rtept lat="46.079018" lon="7.127279"><ele>685.19</ele></rtept><rtept lat="46.079136" lon="7.127543"><ele>686.23</ele></rtept><rtept lat="46.07925" lon="7.127882"><ele>687.18</ele></rtept><rtept lat="46.079292" lon="7.128045"><ele>687.64</ele></rtept><rtept lat="46.07936" lon="7.12838"><ele>689.47</ele></rtept><rtept lat="46.079403" lon="7.128707"><ele>690.36</ele></rtept><rtept lat="46.079422" lon="7.129032"><ele>690.83</ele></rtept><rtept lat="46.079422" lon="7.129249"><ele>691.05</ele></rtept><rtept lat="46.0794" lon="7.129672"><ele>692.28</ele></rtept><rtept lat="46.07936" lon="7.129977"><ele>693.26</ele></rtept><rtept lat="46.07923" lon="7.130616"><ele>693.59</ele></rtept><rtept lat="46.07909" lon="7.131186"><ele>693.19</ele></rtept><rtept lat="46.07895" lon="7.131659"><ele>690.82</ele></rtept><rtept lat="46.078835" lon="7.132003"><ele>687.72</ele></rtept><rtept lat="46.078445" lon="7.133063"><ele>691.48</ele></rtept><rtept lat="46.07837" lon="7.133297"><ele>691.64</ele></rtept><rtept lat="46.078278" lon="7.133665"><ele>691.86</ele></rtept><rtept lat="46.078205" lon="7.134084"><ele>692.3</ele></rtept><rtept lat="46.078148" lon="7.134554"><ele>692.76</ele></rtept><rtept lat="46.078106" lon="7.135017"><ele>693.14</ele></rtept><rtept lat="46.07807" lon="7.135506"><ele>694.0</ele></rtept><rtept lat="46.078014" lon="7.135885"><ele>694.5</ele></rtept><rtept lat="46.078007" lon="7.136272"><ele>694.95</ele></rtept><rtept lat="46.07796" lon="7.137014"><ele>695.97</ele></rtept><rtept lat="46.077938" lon="7.13714"><ele>696.0</ele></rtept><rtept lat="46.07792" lon="7.137205"><ele>696.02</ele></rtept><rtept lat="46.077885" lon="7.137259"><ele>696.36</ele></rtept><rtept lat="46.077873" lon="7.137305"><ele>696.64</ele></rtept><rtept lat="46.07787" lon="7.137355"><ele>696.91</ele></rtept><rtept lat="46.077885" lon="7.137418"><ele>696.94</ele></rtept><rtept lat="46.07791" lon="7.137469"><ele>696.76</ele></rtept><rtept lat="46.07793" lon="7.137585"><ele>696.62</ele></rtept><rtept lat="46.07794" lon="7.137774"><ele>696.55</ele></rtept><rtept lat="46.07794" lon="7.13847"><ele>697.31</ele></rtept><rtept lat="46.07795" lon="7.139312"><ele>698.41</ele></rtept><rtept lat="46.078" lon="7.14058"><ele>699.0</ele></rtept><rtept lat="46.078033" lon="7.140999"><ele>699.64</ele></rtept><rtept lat="46.078083" lon="7.141285"><ele>699.83</ele></rtept><rtept lat="46.078156" lon="7.141965"><ele>700.92</ele></rtept><rtept lat="46.078293" lon="7.142874"><ele>701.97</ele></rtept><rtept lat="46.078358" lon="7.143168"><ele>702.0</ele></rtept><rtept lat="46.07848" lon="7.143507"><ele>702.01</ele></rtept><rtept lat="46.078556" lon="7.14371"><ele>702.31</ele></rtept><rtept lat="46.078793" lon="7.144168"><ele>702.6</ele></rtept><rtept lat="46.07887" lon="7.144347"><ele>702.62</ele></rtept><rtept lat="46.078922" lon="7.144504"><ele>702.68</ele></rtept><rtept lat="46.078957" lon="7.144661"><ele>702.7</ele></rtept><rtept lat="46.078987" lon="7.144824"><ele>702.73</ele></rtept><rtept lat="46.079006" lon="7.145065"><ele>702.71</ele></rtept><rtept lat="46.079002" lon="7.145273"><ele>703.8</ele></rtept><rtept lat="46.078983" lon="7.145338"><ele>704.0</ele></rtept><rtept lat="46.07896" lon="7.145372"><ele>704.0</ele></rtept><rtept lat="46.07894" lon="7.145436"><ele>704.0</ele></rtept><rtept lat="46.078938" lon="7.145483"><ele>704.0</ele></rtept><rtept lat="46.078945" lon="7.145542"><ele>704.0</ele></rtept><rtept lat="46.07896" lon="7.145576"><ele>704.0</ele></rtept><rtept lat="46.07899" lon="7.145617"><ele>704.0</ele></rtept><rtept lat="46.079037" lon="7.145743"><ele>703.3</ele></rtept><rtept lat="46.07909" lon="7.146045"><ele>703.27</ele></rtept><rtept lat="46.07921" lon="7.148201"><ele>704.88</ele></rtept><rtept lat="46.07924" lon="7.148606"><ele>704.67</ele></rtept><rtept lat="46.079315" lon="7.149473"><ele>705.22</ele></rtept><rtept lat="46.07933" lon="7.149767"><ele>705.44</ele></rtept><rtept lat="46.079327" lon="7.149987"><ele>705.63</ele></rtept><rtept lat="46.0793" lon="7.150409"><ele>706.15</ele></rtept><rtept lat="46.07916" lon="7.152107"><ele>708.45</ele></rtept><rtept lat="46.07907" lon="7.152766"><ele>711.07</ele></rtept><rtept lat="46.07904" lon="7.152757"><ele>711.47</ele></rtept><rtept lat="46.079006" lon="7.152762"><ele>711.91</ele></rtept><rtept lat="46.078976" lon="7.152783"><ele>712.26</ele></rtept><rtept lat="46.078953" lon="7.152816"><ele>712.44</ele></rtept><rtept lat="46.078938" lon="7.152859"><ele>712.77</ele></rtept><rtept lat="46.07893" lon="7.152906"><ele>712.97</ele></rtept><rtept lat="46.078938" lon="7.152953"><ele>713.0</ele></rtept><rtept lat="46.078953" lon="7.152996"><ele>713.0</ele></rtept><rtept lat="46.07876" lon="7.153269"><ele>713.21</ele></rtept><rtept lat="46.078613" lon="7.153411"><ele>714.79</ele></rtept><rtept lat="46.07699" lon="7.154792"><ele>726.78</ele></rtept><rtept lat="46.07685" lon="7.154897"><ele>727.89</ele></rtept><rtept lat="46.076687" lon="7.154993"><ele>729.07</ele></rtept><rtept lat="46.076595" lon="7.155026"><ele>730.1</ele></rtept><rtept lat="46.07649" lon="7.155048"><ele>730.92</ele></rtept><rtept lat="46.07637" lon="7.155056"><ele>731.71</ele></rtept><rtept lat="46.076107" lon="7.155042"><ele>733.22</ele></rtept><rtept lat="46.075993" lon="7.155013"><ele>733.42</ele></rtept><rtept lat="46.075897" lon="7.154971"><ele>733.61</ele></rtept><rtept lat="46.075737" lon="7.154874"><ele>733.93</ele></rtept><rtept lat="46.075565" lon="7.154725"><ele>734.32</ele></rtept><rtept lat="46.075138" lon="7.154231"><ele>735.34</ele></rtept><rtept lat="46.074944" lon="7.15405"><ele>735.74</ele></rtept><rtept lat="46.074806" lon="7.154001"><ele>735.96</ele></rtept><rtept lat="46.074654" lon="7.153978"><ele>736.21</ele></rtept><rtept lat="46.073406" lon="7.153986"><ele>738.24</ele></rtept><rtept lat="46.07331" lon="7.154013"><ele>738.4</ele></rtept><rtept lat="46.073215" lon="7.154064"><ele>738.59</ele></rtept><rtept lat="46.07255" lon="7.154647"><ele>741.4</ele></rtept><rtept lat="46.072296" lon="7.154854"><ele>742.21</ele></rtept><rtept lat="46.072178" lon="7.154893"><ele>742.51</ele></rtept><rtept lat="46.07208" lon="7.154892"><ele>742.73</ele></rtept><rtept lat="46.07189" lon="7.154823"><ele>743.13</ele></rtept><rtept lat="46.07115" lon="7.154333"><ele>745.16</ele></rtept><rtept lat="46.070602" lon="7.154074"><ele>746.87</ele></rtept><rtept lat="46.070023" lon="7.153888"><ele>748.66</ele></rtept><rtept lat="46.069653" lon="7.153845"><ele>749.77</ele></rtept><rtept lat="46.069286" lon="7.153921"><ele>751.05</ele></rtept><rtept lat="46.068863" lon="7.154133"><ele>753.03</ele></rtept><rtept lat="46.068726" lon="7.154184"><ele>753.73</ele></rtept><rtept lat="46.06853" lon="7.154176"><ele>754.64</ele></rtept><rtept lat="46.0684" lon="7.15413"><ele>755.27</ele></rtept><rtept lat="46.06821" lon="7.154002"><ele>756.19</ele></rtept><rtept lat="46.067947" lon="7.153668"><ele>757.02</ele></rtept><rtept lat="46.067543" lon="7.15326"><ele>757.43</ele></rtept><rtept lat="46.06734" lon="7.153114"><ele>757.44</ele></rtept><rtept lat="46.067036" lon="7.152967"><ele>757.58</ele></rtept><rtept lat="46.06594" lon="7.152758"><ele>759.08</ele></rtept><rtept lat="46.065727" lon="7.152671"><ele>758.82</ele></rtept><rtept lat="46.065384" lon="7.152452"><ele>760.37</ele></rtept><rtept lat="46.064938" lon="7.152004"><ele>761.84</ele></rtept><rtept lat="46.064526" lon="7.151455"><ele>762.36</ele></rtept><rtept lat="46.063778" lon="7.150147"><ele>766.32</ele></rtept><rtept lat="46.06345" lon="7.149703"><ele>767.75</ele></rtept><rtept lat="46.063103" lon="7.149284"><ele>769.39</ele></rtept><rtept lat="46.06282" lon="7.149025"><ele>770.65</ele></rtept><rtept lat="46.062542" lon="7.148805"><ele>771.77</ele></rtept><rtept lat="46.062004" lon="7.148482"><ele>771.18</ele></rtept><rtept lat="46.061832" lon="7.148416"><ele>771.01</ele></rtept><rtept lat="46.061447" lon="7.148304"><ele>775.6</ele></rtept><rtept lat="46.06087" lon="7.148235"><ele>781.81</ele></rtept><rtept lat="46.060417" lon="7.148234"><ele>783.01</ele></rtept><rtept lat="46.05982" lon="7.148307"><ele>784.6</ele></rtept><rtept lat="46.059193" lon="7.148475"><ele>786.31</ele></rtept><rtept lat="46.058765" lon="7.148658"><ele>787.35</ele></rtept><rtept lat="46.058342" lon="7.14887"><ele>791.96</ele></rtept><rtept lat="46.057236" lon="7.149454"><ele>792.71</ele></rtept><rtept lat="46.056614" lon="7.149688"><ele>790.91</ele></rtept><rtept lat="46.056313" lon="7.149762"><ele>791.1</ele></rtept><rtept lat="46.055977" lon="7.149802"><ele>791.31</ele></rtept><rtept lat="46.05552" lon="7.149828"><ele>792.7</ele></rtept><rtept lat="46.055275" lon="7.149815"><ele>793.45</ele></rtept><rtept lat="46.053894" lon="7.149622"><ele>795.15</ele></rtept><rtept lat="46.053486" lon="7.149618"><ele>797.15</ele></rtept><rtept lat="46.05265" lon="7.149672"><ele>800.15</ele></rtept><rtept lat="46.052433" lon="7.149661"><ele>800.48</ele></rtept><rtept lat="46.05208" lon="7.149641"><ele>801.6</ele></rtept><rtept lat="46.05188" lon="7.149604"><ele>802.32</ele></rtept><rtept lat="46.051533" lon="7.149515"><ele>803.32</ele></rtept><rtept lat="46.051243" lon="7.149398"><ele>804.82</ele></rtept><rtept lat="46.05098" lon="7.14928"><ele>805.81</ele></rtept><rtept lat="46.050713" lon="7.149122"><ele>806.71</ele></rtept><rtept lat="46.049473" lon="7.148241"><ele>811.14</ele></rtept><rtept lat="46.0492" lon="7.148092"><ele>812.17</ele></rtept><rtept lat="46.04889" lon="7.147978"><ele>813.26</ele></rtept><rtept lat="46.048595" lon="7.147885"><ele>814.37</ele></rtept><rtept lat="46.048073" lon="7.147822"><ele>816.25</ele></rtept><rtept lat="46.047665" lon="7.147842"><ele>815.87</ele></rtept><rtept lat="46.04734" lon="7.147898"><ele>817.28</ele></rtept><rtept lat="46.047054" lon="7.147981"><ele>818.21</ele></rtept><rtept lat="46.0468" lon="7.148077"><ele>819.09</ele></rtept><rtept lat="46.04626" lon="7.148323"><ele>820.96</ele></rtept><rtept lat="46.04574" lon="7.148548"><ele>822.77</ele></rtept><rtept lat="46.045506" lon="7.148634"><ele>823.56</ele></rtept><rtept lat="46.04526" lon="7.148706"><ele>824.37</ele></rtept><rtept lat="46.044945" lon="7.148764"><ele>826.06</ele></rtept><rtept lat="46.044647" lon="7.148791"><ele>827.63</ele></rtept><rtept lat="46.044384" lon="7.148798"><ele>828.53</ele></rtept><rtept lat="46.044083" lon="7.148789"><ele>829.2</ele></rtept><rtept lat="46.043816" lon="7.14876"><ele>829.36</ele></rtept><rtept lat="46.04351" lon="7.148691"><ele>829.64</ele></rtept><rtept lat="46.042988" lon="7.148495"><ele>831.55</ele></rtept><rtept lat="46.04259" lon="7.148295"><ele>834.0</ele></rtept><rtept lat="46.04149" lon="7.147597"><ele>838.55</ele></rtept><rtept lat="46.040974" lon="7.147337"><ele>839.26</ele></rtept><rtept lat="46.040424" lon="7.147132"><ele>842.78</ele></rtept><rtept lat="46.039967" lon="7.147029"><ele>844.17</ele></rtept><rtept lat="46.039665" lon="7.147024"><ele>845.21</ele></rtept><rtept lat="46.03951" lon="7.147043"><ele>845.9</ele></rtept><rtept lat="46.039284" lon="7.146978"><ele>847.42</ele></rtept><rtept lat="46.039257" lon="7.146917"><ele>847.65</ele></rtept><rtept lat="46.039207" lon="7.146877"><ele>847.95</ele></rtept><rtept lat="46.039177" lon="7.146871"><ele>848.06</ele></rtept><rtept lat="46.03912" lon="7.146893"><ele>848.31</ele></rtept><rtept lat="46.039085" lon="7.146935"><ele>848.62</ele></rtept><rtept lat="46.03896" lon="7.146972"><ele>848.98</ele></rtept><rtept lat="46.038837" lon="7.146989"><ele>849.21</ele></rtept><rtept lat="46.03866" lon="7.146957"><ele>850.07</ele></rtept><rtept lat="46.038406" lon="7.146938"><ele>850.68</ele></rtept><rtept lat="46.038155" lon="7.146878"><ele>852.55</ele></rtept><rtept lat="46.03785" lon="7.146874"><ele>854.26</ele></rtept><rtept lat="46.03742" lon="7.146942"><ele>855.03</ele></rtept><rtept lat="46.03705" lon="7.147058"><ele>854.72</ele></rtept><rtept lat="46.03691" lon="7.147069"><ele>854.2</ele></rtept><rtept lat="46.03679" lon="7.147044"><ele>853.63</ele></rtept><rtept lat="46.03655" lon="7.146912"><ele>852.82</ele></rtept><rtept lat="46.036133" lon="7.146493"><ele>854.55</ele></rtept><rtept lat="46.03563" lon="7.146044"><ele>857.99</ele></rtept><rtept lat="46.034615" lon="7.145059"><ele>866.23</ele></rtept><rtept lat="46.034492" lon="7.144958"><ele>866.63</ele></rtept><rtept lat="46.034355" lon="7.14486"><ele>867.33</ele></rtept><rtept lat="46.034214" lon="7.144808"><ele>867.99</ele></rtept><rtept lat="46.03405" lon="7.14479"><ele>868.53</ele></rtept><rtept lat="46.033894" lon="7.144808"><ele>869.32</ele></rtept><rtept lat="46.033688" lon="7.144917"><ele>870.29</ele></rtept><rtept lat="46.033592" lon="7.144983"><ele>871.26</ele></rtept><rtept lat="46.033207" lon="7.145325"><ele>874.48</ele></rtept><rtept lat="46.03282" lon="7.145496"><ele>876.0</ele></rtept><rtept lat="46.032482" lon="7.145491"><ele>876.92</ele></rtept><rtept lat="46.032322" lon="7.145467"><ele>876.91</ele></rtept><rtept lat="46.032257" lon="7.14542"><ele>877.42</ele></rtept><rtept lat="46.032204" lon="7.145359"><ele>877.82</ele></rtept><rtept lat="46.03195" lon="7.145016"><ele>879.61</ele></rtept><rtept lat="46.03182" lon="7.144874"><ele>880.77</ele></rtept><rtept lat="46.03165" lon="7.144737"><ele>882.65</ele></rtept><rtept lat="46.03076" lon="7.144086"><ele>891.89</ele></rtept><rtept lat="46.030575" lon="7.14393"><ele>893.67</ele></rtept><rtept lat="46.030247" lon="7.143624"><ele>896.03</ele></rtept><rtept lat="46.030045" lon="7.143475"><ele>897.46</ele></rtept><rtept lat="46.029816" lon="7.143363"><ele>898.08</ele></rtept><rtept lat="46.029716" lon="7.143333"><ele>898.18</ele></rtept><rtept lat="46.029503" lon="7.143294"><ele>898.72</ele></rtept><rtept lat="46.029026" lon="7.143284"><ele>900.74</ele></rtept><rtept lat="46.028957" lon="7.143265"><ele>900.97</ele></rtept><rtept lat="46.028854" lon="7.143209"><ele>901.85</ele></rtept><rtept lat="46.028778" lon="7.143152"><ele>902.35</ele></rtept><rtept lat="46.02863" lon="7.143013"><ele>902.96</ele></rtept><rtept lat="46.027695" lon="7.142044"><ele>909.53</ele></rtept><rtept lat="46.02745" lon="7.141849"><ele>910.97</ele></rtept><rtept lat="46.027103" lon="7.141598"><ele>913.46</ele></rtept><rtept lat="46.02676" lon="7.141439"><ele>914.61</ele></rtept><rtept lat="46.02599" lon="7.141151"><ele>918.18</ele></rtept><rtept lat="46.02588" lon="7.141084"><ele>918.9</ele></rtept><rtept lat="46.025696" lon="7.140954"><ele>920.5</ele></rtept><rtept lat="46.025616" lon="7.140877"><ele>921.3</ele></rtept><rtept lat="46.0255" lon="7.140746"><ele>922.41</ele></rtept><rtept lat="46.02513" lon="7.140267"><ele>925.62</ele></rtept><rtept lat="46.02499" lon="7.140097"><ele>927.33</ele></rtept><rtept lat="46.024822" lon="7.139911"><ele>928.59</ele></rtept><rtept lat="46.02395" lon="7.139014"><ele>935.06</ele></rtept><rtept lat="46.023266" lon="7.138295"><ele>938.93</ele></rtept><rtept lat="46.023006" lon="7.137924"><ele>941.0</ele></rtept><rtept lat="46.022476" lon="7.137068"><ele>945.33</ele></rtept><rtept lat="46.02196" lon="7.136332"><ele>948.37</ele></rtept><rtept lat="46.021057" lon="7.135093"><ele>951.66</ele></rtept><rtept lat="46.020634" lon="7.134576"><ele>953.18</ele></rtept><rtept lat="46.020336" lon="7.13427"><ele>955.12</ele></rtept><rtept lat="46.020023" lon="7.133929"><ele>957.71</ele></rtept><rtept lat="46.01917" lon="7.13295"><ele>963.6</ele></rtept><rtept lat="46.0189" lon="7.13273"><ele>965.0</ele></rtept><rtept lat="46.018818" lon="7.132631"><ele>965.46</ele></rtept><rtept lat="46.01878" lon="7.132571"><ele>965.85</ele></rtept><rtept lat="46.018738" lon="7.132461"><ele>966.3</ele></rtept><rtept lat="46.018707" lon="7.132335"><ele>966.62</ele></rtept><rtept lat="46.0186" lon="7.131766"><ele>967.99</ele></rtept><rtept lat="46.01856" lon="7.131586"><ele>968.66</ele></rtept><rtept lat="46.018543" lon="7.131548"><ele>968.65</ele></rtept><rtept lat="46.018353" lon="7.131274"><ele>968.24</ele></rtept><rtept lat="46.01807" lon="7.130901"><ele>968.72</ele></rtept><rtept lat="46.017925" lon="7.130756"><ele>968.85</ele></rtept><rtept lat="46.017635" lon="7.130529"><ele>972.12</ele></rtept><rtept lat="46.017452" lon="7.130358"><ele>974.2</ele></rtept><rtept lat="46.017193" lon="7.130045"><ele>976.25</ele></rtept><rtept lat="46.016926" lon="7.129681"><ele>977.65</ele></rtept><rtept lat="46.01668" lon="7.129415"><ele>978.53</ele></rtept><rtept lat="46.01656" lon="7.129333"><ele>979.03</ele></rtept><rtept lat="46.016388" lon="7.129241"><ele>979.85</ele></rtept><rtept lat="46.01618" lon="7.129169"><ele>980.79</ele></rtept><rtept lat="46.015697" lon="7.12898"><ele>984.98</ele></rtept><rtept lat="46.01539" lon="7.128784"><ele>987.41</ele></rtept><rtept lat="46.015194" lon="7.128632"><ele>988.84</ele></rtept><rtept lat="46.01457" lon="7.128102"><ele>993.38</ele></rtept><rtept lat="46.014187" lon="7.127818"><ele>995.66</ele></rtept><rtept lat="46.014084" lon="7.127753"><ele>996.22</ele></rtept><rtept lat="46.01376" lon="7.127586"><ele>997.92</ele></rtept><rtept lat="46.013447" lon="7.127483"><ele>999.74</ele></rtept><rtept lat="46.013004" lon="7.127422"><ele>1002.49</ele></rtept><rtept lat="46.012775" lon="7.127421"><ele>1004.25</ele></rtept><rtept lat="46.012547" lon="7.127445"><ele>1006.13</ele></rtept><rtept lat="46.01235" lon="7.127488"><ele>1008.54</ele></rtept><rtept lat="46.01213" lon="7.127554"><ele>1010.89</ele></rtept><rtept lat="46.0118" lon="7.127689"><ele>1014.35</ele></rtept><rtept lat="46.011333" lon="7.127928"><ele>1019.03</ele></rtept><rtept lat="46.01097" lon="7.128063"><ele>1022.26</ele></rtept><rtept lat="46.010612" lon="7.12812"><ele>1025.29</ele></rtept><rtept lat="46.01033" lon="7.128116"><ele>1027.48</ele></rtept><rtept lat="46.010044" lon="7.12806"><ele>1029.65</ele></rtept><rtept lat="46.009804" lon="7.127958"><ele>1031.39</ele></rtept><rtept lat="46.009514" lon="7.127787"><ele>1033.11</ele></rtept><rtept lat="46.009277" lon="7.127593"><ele>1034.44</ele></rtept><rtept lat="46.009037" lon="7.127345"><ele>1035.69</ele></rtept><rtept lat="46.00892" lon="7.127199"><ele>1036.16</ele></rtept><rtept lat="46.008797" lon="7.127016"><ele>1036.57</ele></rtept><rtept lat="46.008656" lon="7.126766"><ele>1037.01</ele></rtept><rtept lat="46.008495" lon="7.12645"><ele>1037.64</ele></rtept><rtept lat="46.008217" lon="7.125824"><ele>1037.58</ele></rtept><rtept lat="46.00793" lon="7.125272"><ele>1037.39</ele></rtept><rtept lat="46.007805" lon="7.125108"><ele>1037.61</ele></rtept><rtept lat="46.007572" lon="7.124903"><ele>1037.84</ele></rtept><rtept lat="46.007305" lon="7.124799"><ele>1039.01</ele></rtept><rtept lat="46.0067" lon="7.124757"><ele>1042.92</ele></rtept><rtept lat="46.006153" lon="7.124577"><ele>1046.05</ele></rtept><rtept lat="46.00587" lon="7.124495"><ele>1046.89</ele></rtept><rtept lat="46.005665" lon="7.124452"><ele>1047.29</ele></rtept><rtept lat="46.0055" lon="7.124446"><ele>1047.36</ele></rtept><rtept lat="46.005302" lon="7.124454"><ele>1047.34</ele></rtept><rtept lat="46.005127" lon="7.124488"><ele>1047.76</ele></rtept><rtept lat="46.00497" lon="7.124535"><ele>1048.33</ele></rtept><rtept lat="46.004593" lon="7.124744"><ele>1049.88</ele></rtept><rtept lat="46.004047" lon="7.125127"><ele>1051.11</ele></rtept><rtept lat="46.003574" lon="7.125413"><ele>1052.69</ele></rtept><rtept lat="46.00327" lon="7.125581"><ele>1053.93</ele></rtept><rtept lat="46.003044" lon="7.125681"><ele>1054.9</ele></rtept><rtept lat="46.002903" lon="7.125732"><ele>1055.49</ele></rtept><rtept lat="46.002712" lon="7.125749"><ele>1056.58</ele></rtept><rtept lat="46.00252" lon="7.125719"><ele>1058.24</ele></rtept><rtept lat="46.002186" lon="7.125564"><ele>1061.1</ele></rtept><rtept lat="46.00194" lon="7.125522"><ele>1063.02</ele></rtept><rtept lat="46.001797" lon="7.125535"><ele>1064.06</ele></rtept><rtept lat="46.00153" lon="7.125582"><ele>1066.04</ele></rtept><rtept lat="46.00107" lon="7.1257"><ele>1069.49</ele></rtept><rtept lat="46.000916" lon="7.12575"><ele>1070.66</ele></rtept><rtept lat="46.00084" lon="7.125783"><ele>1071.07</ele></rtept><rtept lat="46.000618" lon="7.125945"><ele>1071.91</ele></rtept><rtept lat="46.000465" lon="7.126022"><ele>1072.37</ele></rtept><rtept lat="46.000305" lon="7.126059"><ele>1072.61</ele></rtept><rtept lat="46.00013" lon="7.126071"><ele>1073.35</ele></rtept><rtept lat="45.99989" lon="7.12605"><ele>1074.47</ele></rtept><rtept lat="45.9989" lon="7.12602"><ele>1078.28</ele></rtept><rtept lat="45.998695" lon="7.126035"><ele>1079.44</ele></rtept><rtept lat="45.998497" lon="7.12608"><ele>1080.82</ele></rtept><rtept lat="45.99831" lon="7.126163"><ele>1082.25</ele></rtept><rtept lat="45.998203" lon="7.126227"><ele>1083.13</ele></rtept><rtept lat="45.99808" lon="7.126318"><ele>1084.08</ele></rtept><rtept lat="45.997585" lon="7.126799"><ele>1089.5</ele></rtept><rtept lat="45.99742" lon="7.126893"><ele>1090.93</ele></rtept><rtept lat="45.997295" lon="7.126927"><ele>1091.82</ele></rtept><rtept lat="45.99719" lon="7.126932"><ele>1092.29</ele></rtept><rtept lat="45.997124" lon="7.126935"><ele>1092.57</ele></rtept><rtept lat="45.996933" lon="7.126884"><ele>1092.92</ele></rtept><rtept lat="45.99654" lon="7.126687"><ele>1096.78</ele></rtept><rtept lat="45.99641" lon="7.126647"><ele>1098.0</ele></rtept><rtept lat="45.996094" lon="7.126608"><ele>1100.84</ele></rtept><rtept lat="45.995422" lon="7.126633"><ele>1106.01</ele></rtept><rtept lat="45.995316" lon="7.126629"><ele>1106.63</ele></rtept><rtept lat="45.995125" lon="7.126607"><ele>1107.82</ele></rtept><rtept lat="45.99503" lon="7.12658"><ele>1108.47</ele></rtept><rtept lat="45.994717" lon="7.126455"><ele>1111.18</ele></rtept><rtept lat="45.994328" lon="7.126226"><ele>1113.1</ele></rtept><rtept lat="45.99396" lon="7.125966"><ele>1114.81</ele></rtept><rtept lat="45.99364" lon="7.125756"><ele>1117.54</ele></rtept><rtept lat="45.99316" lon="7.12546"><ele>1120.97</ele></rtept><rtept lat="45.99279" lon="7.125261"><ele>1123.8</ele></rtept><rtept lat="45.992355" lon="7.125069"><ele>1127.22</ele></rtept><rtept lat="45.9912" lon="7.124679"><ele>1137.2</ele></rtept><rtept lat="45.991077" lon="7.124648"><ele>1139.0</ele></rtept><rtept lat="45.990955" lon="7.124647"><ele>1139.52</ele></rtept><rtept lat="45.990845" lon="7.124682"><ele>1140.93</ele></rtept><rtept lat="45.99067" lon="7.124832"><ele>1142.35</ele></rtept><rtept lat="45.990536" lon="7.124995"><ele>1143.85</ele></rtept><rtept lat="45.990402" lon="7.125132"><ele>1145.2</ele></rtept><rtept lat="45.990253" lon="7.125234"><ele>1146.3</ele></rtept><rtept lat="45.990112" lon="7.125282"><ele>1147.22</ele></rtept><rtept lat="45.98989" lon="7.125287"><ele>1148.39</ele></rtept><rtept lat="45.989323" lon="7.125271"><ele>1150.02</ele></rtept><rtept lat="45.98921" lon="7.125315"><ele>1149.92</ele></rtept><rtept lat="45.989056" lon="7.125452"><ele>1146.45</ele></rtept><rtept lat="45.988907" lon="7.125629"><ele>1150.84</ele></rtept><rtept lat="45.988865" lon="7.125723"><ele>1152.15</ele></rtept><rtept lat="45.98883" lon="7.125953"><ele>1154.2</ele></rtept><rtept lat="45.988815" lon="7.126005"><ele>1154.75</ele></rtept><rtept lat="45.988697" lon="7.126134"><ele>1156.57</ele></rtept><rtept lat="45.988564" lon="7.12621"><ele>1157.28</ele></rtept><rtept lat="45.988464" lon="7.126226"><ele>1158.32</ele></rtept><rtept lat="45.988365" lon="7.126186"><ele>1159.31</ele></rtept><rtept lat="45.988323" lon="7.126152"><ele>1159.9</ele></rtept><rtept lat="45.988285" lon="7.126096"><ele>1160.62</ele></rtept><rtept lat="45.988255" lon="7.125998"><ele>1161.3</ele></rtept><rtept lat="45.988247" lon="7.125904"><ele>1161.61</ele></rtept><rtept lat="45.988255" lon="7.12561"><ele>1163.06</ele></rtept><rtept lat="45.98822" lon="7.125402"><ele>1164.44</ele></rtept><rtept lat="45.988186" lon="7.125347"><ele>1164.86</ele></rtept><rtept lat="45.988148" lon="7.1253"><ele>1165.29</ele></rtept><rtept lat="45.988087" lon="7.125261"><ele>1165.9</ele></rtept><rtept lat="45.988014" lon="7.125238"><ele>1166.54</ele></rtept><rtept lat="45.987926" lon="7.125237"><ele>1167.28</ele></rtept><rtept lat="45.987743" lon="7.125259"><ele>1168.98</ele></rtept><rtept lat="45.987526" lon="7.125313"><ele>1170.87</ele></rtept><rtept lat="45.987057" lon="7.125512"><ele>1174.61</ele></rtept><rtept lat="45.986794" lon="7.125737"><ele>1176.45</ele></rtept><rtept lat="45.986614" lon="7.125828"><ele>1177.47</ele></rtept><rtept lat="45.986427" lon="7.125846"><ele>1178.43</ele></rtept><rtept lat="45.98595" lon="7.125566"><ele>1181.06</ele></rtept><rtept lat="45.985363" lon="7.125373"><ele>1184.66</ele></rtept><rtept lat="45.984657" lon="7.125054"><ele>1188.29</ele></rtept><rtept lat="45.984257" lon="7.124834"><ele>1191.74</ele></rtept><rtept lat="45.983734" lon="7.124641"><ele>1196.32</ele></rtept><rtept lat="45.982822" lon="7.124344"><ele>1203.91</ele></rtept><rtept lat="45.98249" lon="7.124254"><ele>1206.2</ele></rtept><rtept lat="45.982147" lon="7.124176"><ele>1208.04</ele></rtept><rtept lat="45.982018" lon="7.124179"><ele>1208.62</ele></rtept><rtept lat="45.9819" lon="7.124215"><ele>1209.19</ele></rtept><rtept lat="45.981827" lon="7.124259"><ele>1209.52</ele></rtept><rtept lat="45.981693" lon="7.124401"><ele>1209.96</ele></rtept><rtept lat="45.98164" lon="7.124509"><ele>1210.27</ele></rtept><rtept lat="45.981594" lon="7.124642"><ele>1210.75</ele></rtept><rtept lat="45.981483" lon="7.124856"><ele>1212.5</ele></rtept><rtept lat="45.981396" lon="7.124955"><ele>1212.19</ele></rtept><rtept lat="45.9813" lon="7.125039"><ele>1213.47</ele></rtept><rtept lat="45.98111" lon="7.125154"><ele>1214.62</ele></rtept><rtept lat="45.980995" lon="7.125204"><ele>1215.37</ele></rtept><rtept lat="45.980885" lon="7.12524"><ele>1215.78</ele></rtept><rtept lat="45.980755" lon="7.125248"><ele>1216.48</ele></rtept><rtept lat="45.98063" lon="7.125229"><ele>1217.04</ele></rtept><rtept lat="45.980244" lon="7.125083"><ele>1218.62</ele></rtept><rtept lat="45.980083" lon="7.125004"><ele>1219.28</ele></rtept><rtept lat="45.980007" lon="7.124948"><ele>1219.64</ele></rtept><rtept lat="45.979595" lon="7.124471"><ele>1222.35</ele></rtept><rtept lat="45.979282" lon="7.124144"><ele>1226.28</ele></rtept><rtept lat="45.978985" lon="7.123946"><ele>1229.39</ele></rtept><rtept lat="45.97879" lon="7.123851"><ele>1231.28</ele></rtept><rtept lat="45.978256" lon="7.123467"><ele>1233.12</ele></rtept><rtept lat="45.977882" lon="7.12314"><ele>1234.81</ele></rtept><rtept lat="45.977203" lon="7.122311"><ele>1238.48</ele></rtept><rtept lat="45.97711" lon="7.122172"><ele>1239.02</ele></rtept><rtept lat="45.97703" lon="7.121978"><ele>1239.7</ele></rtept><rtept lat="45.976894" lon="7.121681"><ele>1240.56</ele></rtept><rtept lat="45.976765" lon="7.12151"><ele>1241.01</ele></rtept><rtept lat="45.976616" lon="7.121399"><ele>1241.46</ele></rtept><rtept lat="45.976498" lon="7.12128"><ele>1242.14</ele></rtept><rtept lat="45.97637" lon="7.121118"><ele>1242.69</ele></rtept><rtept lat="45.97608" lon="7.120613"><ele>1243.47</ele></rtept><rtept lat="45.97344" lon="7.115878"><ele>1283.61</ele></rtept><rtept lat="45.973267" lon="7.115602"><ele>1285.93</ele></rtept><rtept lat="45.97314" lon="7.11545"><ele>1287.46</ele></rtept><rtept lat="45.97299" lon="7.115285"><ele>1289.32</ele></rtept><rtept lat="45.97248" lon="7.11479"><ele>1296.08</ele></rtept><rtept lat="45.97237" lon="7.11465"><ele>1297.66</ele></rtept><rtept lat="45.972244" lon="7.114366"><ele>1300.13</ele></rtept><rtept lat="45.972218" lon="7.114314"><ele>1300.65</ele></rtept><rtept lat="45.97218" lon="7.114271"><ele>1301.18</ele></rtept><rtept lat="45.972103" lon="7.114235"><ele>1302.0</ele></rtept><rtept lat="45.972027" lon="7.114248"><ele>1302.72</ele></rtept><rtept lat="45.97196" lon="7.114314"><ele>1303.4</ele></rtept><rtept lat="45.97176" lon="7.114706"><ele>1306.76</ele></rtept><rtept lat="45.971355" lon="7.115559"><ele>1314.58</ele></rtept><rtept lat="45.971146" lon="7.115905"><ele>1318.12</ele></rtept><rtept lat="45.970234" lon="7.117174"><ele>1328.2</ele></rtept><rtept lat="45.970078" lon="7.11736"><ele>1330.16</ele></rtept><rtept lat="45.96997" lon="7.117328"><ele>1331.36</ele></rtept><rtept lat="45.96991" lon="7.117091"><ele>1333.12</ele></rtept><rtept lat="45.969803" lon="7.116224"><ele>1337.81</ele></rtept><rtept lat="45.96974" lon="7.115967"><ele>1339.16</ele></rtept><rtept lat="45.96967" lon="7.115741"><ele>1340.4</ele></rtept><rtept lat="45.969574" lon="7.115568"><ele>1341.59</ele></rtept><rtept lat="45.96946" lon="7.115417"><ele>1342.85</ele></rtept><rtept lat="45.969257" lon="7.115245"><ele>1344.88</ele></rtept><rtept lat="45.96904" lon="7.115022"><ele>1347.34</ele></rtept><rtept lat="45.96888" lon="7.114776"><ele>1349.7</ele></rtept><rtept lat="45.96852" lon="7.114147"><ele>1355.48</ele></rtept><rtept lat="45.96846" lon="7.11406"><ele>1356.45</ele></rtept><rtept lat="45.968422" lon="7.11402"><ele>1357.07</ele></rtept><rtept lat="45.967983" lon="7.113703"><ele>1360.73</ele></rtept><rtept lat="45.967876" lon="7.11361"><ele>1361.6</ele></rtept><rtept lat="45.96777" lon="7.1135"><ele>1362.56</ele></rtept><rtept lat="45.967617" lon="7.113302"><ele>1364.1</ele></rtept><rtept lat="45.96752" lon="7.113223"><ele>1364.9</ele></rtept><rtept lat="45.96744" lon="7.113168"><ele>1365.54</ele></rtept><rtept lat="45.966713" lon="7.112768"><ele>1371.52</ele></rtept><rtept lat="45.966373" lon="7.112517"><ele>1374.43</ele></rtept><rtept lat="45.966267" lon="7.112492"><ele>1375.14</ele></rtept><rtept lat="45.96618" lon="7.112514"><ele>1375.71</ele></rtept><rtept lat="45.966072" lon="7.112585"><ele>1376.56</ele></rtept><rtept lat="45.96599" lon="7.11271"><ele>1377.38</ele></rtept><rtept lat="45.96589" lon="7.112967"><ele>1378.61</ele></rtept><rtept lat="45.9658" lon="7.113139"><ele>1378.83</ele></rtept><rtept lat="45.96571" lon="7.113228"><ele>1378.56</ele></rtept><rtept lat="45.96559" lon="7.113254"><ele>1378.76</ele></rtept><rtept lat="45.965527" lon="7.113251"><ele>1379.13</ele></rtept><rtept lat="45.96546" lon="7.113195"><ele>1379.58</ele></rtept><rtept lat="45.965405" lon="7.113126"><ele>1380.07</ele></rtept><rtept lat="45.965347" lon="7.113017"><ele>1380.76</ele></rtept><rtept lat="45.96533" lon="7.112882"><ele>1380.27</ele></rtept><rtept lat="45.96532" lon="7.112707"><ele>1380.61</ele></rtept><rtept lat="45.965332" lon="7.112253"><ele>1381.63</ele></rtept><rtept lat="45.96531" lon="7.112101"><ele>1382.02</ele></rtept><rtept lat="45.96525" lon="7.111928"><ele>1383.01</ele></rtept><rtept lat="45.965153" lon="7.111762"><ele>1382.36</ele></rtept><rtept lat="45.964924" lon="7.111523"><ele>1383.25</ele></rtept><rtept lat="45.964745" lon="7.111359"><ele>1384.13</ele></rtept><rtept lat="45.964558" lon="7.11124"><ele>1384.94</ele></rtept><rtept lat="45.96411" lon="7.111086"><ele>1387.1</ele></rtept><rtept lat="45.964012" lon="7.111035"><ele>1387.61</ele></rtept><rtept lat="45.963905" lon="7.110999"><ele>1388.12</ele></rtept><rtept lat="45.96365" lon="7.111004"><ele>1389.47</ele></rtept><rtept lat="45.963425" lon="7.111026"><ele>1390.79</ele></rtept><rtept lat="45.963207" lon="7.111115"><ele>1393.21</ele></rtept><rtept lat="45.9627" lon="7.111423"><ele>1396.62</ele></rtept><rtept lat="45.96192" lon="7.111833"><ele>1404.44</ele></rtept><rtept lat="45.96171" lon="7.111889"><ele>1406.43</ele></rtept><rtept lat="45.961422" lon="7.111921"><ele>1409.37</ele></rtept><rtept lat="45.961285" lon="7.111869"><ele>1410.73</ele></rtept><rtept lat="45.961086" lon="7.111593"><ele>1412.71</ele></rtept><rtept lat="45.960957" lon="7.111364"><ele>1413.98</ele></rtept><rtept lat="45.960888" lon="7.111262"><ele>1414.53</ele></rtept><rtept lat="45.960808" lon="7.111175"><ele>1415.0</ele></rtept><rtept lat="45.960644" lon="7.11108"><ele>1415.04</ele></rtept><rtept lat="45.96044" lon="7.110979"><ele>1415.15</ele></rtept><rtept lat="45.960316" lon="7.110861"><ele>1415.38</ele></rtept><rtept lat="45.9602" lon="7.11059"><ele>1416.2</ele></rtept><rtept lat="45.960117" lon="7.110356"><ele>1416.98</ele></rtept><rtept lat="45.96007" lon="7.110274"><ele>1417.41</ele></rtept><rtept lat="45.96003" lon="7.110223"><ele>1417.78</ele></rtept><rtept lat="45.95993" lon="7.11018"><ele>1418.47</ele></rtept><rtept lat="45.95983" lon="7.110185"><ele>1419.14</ele></rtept><rtept lat="45.95969" lon="7.110228"><ele>1420.05</ele></rtept><rtept lat="45.95958" lon="7.110278"><ele>1420.84</ele></rtept><rtept lat="45.95951" lon="7.11036"><ele>1421.46</ele></rtept><rtept lat="45.95936" lon="7.110572"><ele>1423.08</ele></rtept><rtept lat="45.959244" lon="7.110669"><ele>1424.08</ele></rtept><rtept lat="45.959152" lon="7.110696"><ele>1424.75</ele></rtept><rtept lat="45.959057" lon="7.110702"><ele>1425.42</ele></rtept><rtept lat="45.95897" lon="7.110665"><ele>1426.04</ele></rtept><rtept lat="45.95874" lon="7.110504"><ele>1427.32</ele></rtept><rtept lat="45.958603" lon="7.110481"><ele>1427.98</ele></rtept><rtept lat="45.95848" lon="7.11049"><ele>1428.57</ele></rtept><rtept lat="45.958187" lon="7.11062"><ele>1430.11</ele></rtept><rtept lat="45.958008" lon="7.110675"><ele>1430.95</ele></rtept><rtept lat="45.95795" lon="7.110665"><ele>1431.25</ele></rtept><rtept lat="45.957905" lon="7.110637"><ele>1431.52</ele></rtept><rtept lat="45.957832" lon="7.110567"><ele>1432.01</ele></rtept><rtept lat="45.957767" lon="7.110473"><ele>1432.54</ele></rtept><rtept lat="45.957542" lon="7.109981"><ele>1435.56</ele></rtept><rtept lat="45.957317" lon="7.109526"><ele>1439.3</ele></rtept><rtept lat="45.95715" lon="7.109266"><ele>1441.66</ele></rtept><rtept lat="45.956112" lon="7.107755"><ele>1454.09</ele></rtept><rtept lat="45.95592" lon="7.107448"><ele>1456.1</ele></rtept><rtept lat="45.95577" lon="7.107264"><ele>1457.35</ele></rtept><rtept lat="45.955437" lon="7.106807"><ele>1459.15</ele></rtept><rtept lat="45.955284" lon="7.106562"><ele>1460.66</ele></rtept><rtept lat="45.955223" lon="7.106479"><ele>1461.19</ele></rtept><rtept lat="45.955143" lon="7.106406"><ele>1461.53</ele></rtept><rtept lat="45.954296" lon="7.10607"><ele>1468.7</ele></rtept><rtept lat="45.95376" lon="7.105629"><ele>1474.71</ele></rtept><rtept lat="45.953545" lon="7.105491"><ele>1476.72</ele></rtept><rtept lat="45.953392" lon="7.105448"><ele>1478.07</ele></rtept><rtept lat="45.95298" lon="7.105355"><ele>1481.61</ele></rtept><rtept lat="45.952744" lon="7.105274"><ele>1483.84</ele></rtept><rtept lat="45.952374" lon="7.105062"><ele>1486.67</ele></rtept><rtept lat="45.952244" lon="7.10501"><ele>1487.5</ele></rtept><rtept lat="45.95212" lon="7.104975"><ele>1488.14</ele></rtept><rtept lat="45.95179" lon="7.104892"><ele>1489.31</ele></rtept><rtept lat="45.951366" lon="7.104818"><ele>1492.24</ele></rtept><rtept lat="45.950966" lon="7.104704"><ele>1495.19</ele></rtept><rtept lat="45.950417" lon="7.104644"><ele>1499.18</ele></rtept><rtept lat="45.949993" lon="7.104644"><ele>1501.64</ele></rtept><rtept lat="45.94899" lon="7.104677"><ele>1506.56</ele></rtept><rtept lat="45.948555" lon="7.104666"><ele>1508.02</ele></rtept><rtept lat="45.948334" lon="7.104611"><ele>1508.77</ele></rtept><rtept lat="45.948097" lon="7.104506"><ele>1509.62</ele></rtept><rtept lat="45.94761" lon="7.104206"><ele>1511.56</ele></rtept><rtept lat="45.947315" lon="7.103967"><ele>1512.88</ele></rtept><rtept lat="45.94699" lon="7.103608"><ele>1516.95</ele></rtept><rtept lat="45.946636" lon="7.103265"><ele>1519.52</ele></rtept><rtept lat="45.946316" lon="7.102866"><ele>1521.83</ele></rtept><rtept lat="45.94597" lon="7.102498"><ele>1524.08</ele></rtept><rtept lat="45.94561" lon="7.102131"><ele>1526.48</ele></rtept><rtept lat="45.945194" lon="7.101667"><ele>1530.12</ele></rtept><rtept lat="45.944244" lon="7.100772"><ele>1536.79</ele></rtept><rtept lat="45.943962" lon="7.100526"><ele>1538.9</ele></rtept><rtept lat="45.942806" lon="7.099383"><ele>1549.01</ele></rtept><rtept lat="45.942608" lon="7.099228"><ele>1550.73</ele></rtept><rtept lat="45.942265" lon="7.098905"><ele>1554.1</ele></rtept><rtept lat="45.942135" lon="7.09881"><ele>1555.34</ele></rtept><rtept lat="45.94186" lon="7.098702"><ele>1557.85</ele></rtept><rtept lat="45.94162" lon="7.098628"><ele>1560.03</ele></rtept><rtept lat="45.940952" lon="7.098383"><ele>1565.76</ele></rtept><rtept lat="45.939735" lon="7.098103"><ele>1575.37</ele></rtept><rtept lat="45.93895" lon="7.098021"><ele>1579.61</ele></rtept><rtept lat="45.938316" lon="7.097943"><ele>1583.3</ele></rtept><rtept lat="45.938164" lon="7.097911"><ele>1584.19</ele></rtept><rtept lat="45.937992" lon="7.097916"><ele>1585.17</ele></rtept><rtept lat="45.93763" lon="7.097994"><ele>1587.11</ele></rtept><rtept lat="45.937374" lon="7.098032"><ele>1588.4</ele></rtept><rtept lat="45.936977" lon="7.098186"><ele>1591.08</ele></rtept><rtept lat="45.93623" lon="7.098371"><ele>1596.0</ele></rtept><rtept lat="45.935677" lon="7.098468"><ele>1598.4</ele></rtept><rtept lat="45.935375" lon="7.098458"><ele>1598.86</ele></rtept><rtept lat="45.93499" lon="7.098431"><ele>1599.32</ele></rtept><rtept lat="45.934776" lon="7.098431"><ele>1599.59</ele></rtept><rtept lat="45.933983" lon="7.098513"><ele>1600.14</ele></rtept><rtept lat="45.93387" lon="7.098558"><ele>1601.0</ele></rtept><rtept lat="45.933228" lon="7.098634"><ele>1601.55</ele></rtept><rtept lat="45.933228" lon="7.098976"><ele>1604.39</ele></rtept><rtept lat="45.933254" lon="7.0993"><ele>1607.47</ele></rtept><rtept lat="45.933365" lon="7.100047"><ele>1615.49</ele></rtept></rte></gpx>