<?xml version="1.0" encoding="UTF-8" standalone="no"?><gpx xmlns="http://www.topografix.com/GPX/1/1" xmlns:xsi="http://www.w3.org/2001/XMLSchema-instance" creator="Sports Tracker" version="1.1" xsi:schemaLocation="http://www.topografix.com/GPX/1/1 http://www.topografix.com/GPX/1/1/gpx.xsd"><metadata><name>Fouly 6km</name><author><name>valentine300</name></author></metadata><wpt lat="45.933357" lon="7.099993"><name>Begin</name><desc>Auto-generated</desc><type>Begin</type></wpt><wpt lat="45.933228" lon="7.098976"><name>Tournez à gauche sur Petite C</name><type>Left_turn</type></wpt><wpt lat="45.93186" lon="7.098685"><name>Tournez à gauche sur Route de</name><type>Left_turn</type></wpt><wpt lat="45.931747" lon="7.098612"><name>Tournez à gauche</name><type>Left_turn</type></wpt><wpt lat="45.931705" lon="7.098787"><name>Waypoint 1</name><desc>Auto-generated</desc><type>Waypoint</type></wpt><wpt lat="45.930996" lon="7.097939"><name>Tournez fort à gauche sur Rou</name><type>Sharp_left_turn</type></wpt><wpt lat="45.93061" lon="7.099377"><name>Restez sur la gauche sur Route</name><type>Left_at_fork_turn</type></wpt><wpt lat="45.929123" lon="7.099236"><name>Waypoint 2</name><desc>Auto-generated</desc><type>Waypoint</type></wpt><wpt lat="45.929604" lon="7.101888"><name>Restez sur la droite sur Route</name><type>Right_at_fork_turn</type></wpt><wpt lat="45.927746" lon="7.10231"><name>Tournez légèrement à droite</name><type>Slight_right_turn</type></wpt><wpt lat="45.925804" lon="7.103275"><name>Waypoint 3</name><desc>Auto-generated</desc><type>Waypoint</type></wpt><wpt lat="45.920982" lon="7.105563"><name>Restez sur la droite</name><type>Right_at_fork_turn</type></wpt><wpt lat="45.91969" lon="7.106252"><name>Restez sur la droite</name><type>Right_at_fork_turn</type></wpt><wpt lat="45.91792" lon="7.105485"><name>Waypoint 4</name><desc>Auto-generated</desc><type>Waypoint</type></wpt><wpt lat="45.916573" lon="7.104702"><name>Tournez à gauche sur Ferret</name><type>Left_turn</type></wpt><wpt lat="45.915688" lon="7.104994"><name>Tournez à droite</name><type>Right_turn</type></wpt><wpt lat="45.916103" lon="7.103579"><name>Waypoint 5</name><desc>Auto-generated</desc><type>Waypoint</type></wpt><wpt lat="45.917095" lon="7.102477"><name>Waypoint 6</name><desc>Auto-generated</desc><type>Waypoint</type></wpt><wpt lat="45.917908" lon="7.1025724"><name>Waypoint 7</name><desc>Auto-generated</desc><type>Waypoint</type></wpt><wpt lat="45.91858" lon="7.1024756"><name>Waypoint 8</name><desc>Auto-generated</desc><type>Waypoint</type></wpt><wpt lat="45.919174" lon="7.102359"><name>Waypoint 9</name><desc>Auto-generated</desc><type>Waypoint</type></wpt><wpt lat="45.91958" lon="7.1020284"><name>Waypoint 10</name><desc>Auto-generated</desc><type>Waypoint</type></wpt><wpt lat="45.920036" lon="7.1013355"><name>Waypoint 11</name><desc>Auto-generated</desc><type>Waypoint</type></wpt><wpt lat="45.920467" lon="7.100731"><name>Waypoint 12</name><desc>Auto-generated</desc><type>Waypoint</type></wpt><wpt lat="45.92204" lon="7.100035"><name>Waypoint 13</name><desc>Auto-generated</desc><type>Waypoint</type></wpt><wpt lat="45.92328" lon="7.098756"><name>Waypoint 14</name><desc>Auto-generated</desc><type>Waypoint</type></wpt><wpt lat="45.923283" lon="7.098747"><name>Waypoint 15</name><desc>Auto-generated</desc><type>Waypoint</type></wpt><wpt lat="45.925186" lon="7.096765"><name>Waypoint 16</name><desc>Auto-generated</desc><type>Waypoint</type></wpt><wpt lat="45.92636" lon="7.0959945"><name>Waypoint 17</name><desc>Auto-generated</desc><type>Waypoint</type></wpt><wpt lat="45.92743" lon="7.095145"><name>Waypoint 18</name><desc>Auto-generated</desc><type>Waypoint</type></wpt><wpt lat="45.927956" lon="7.0947614"><name>Waypoint 19</name><desc>Auto-generated</desc><type>Waypoint</type></wpt><wpt lat="45.928635" lon="7.0948515"><name>Waypoint 20</name><desc>Auto-generated</desc><type>Waypoint</type></wpt><wpt lat="45.92977" lon="7.095119"><name>Waypoint 21</name><desc>Auto-generated</desc><type>Waypoint</type></wpt><wpt lat="45.930023" lon="7.095219"><name>Waypoint 22</name><desc>Auto-generated</desc><type>Waypoint</type></wpt><wpt lat="45.930515" lon="7.0956793"><name>Waypoint 23</name><desc>Auto-generated</desc><type>Waypoint</type></wpt><wpt lat="45.930973" lon="7.096884"><name>Waypoint 24</name><desc>Auto-generated</desc><type>Waypoint</type></wpt><wpt lat="45.931194" lon="7.097197"><name>Tournez à droite</name><type>Right_turn</type></wpt><wpt lat="45.93211" lon="7.098688"><name>Tournez légèrement à gauche</name><type>Slight_left_turn</type></wpt><wpt lat="45.932503" lon="7.098684"><name>Waypoint 25</name><desc>Auto-generated</desc><type>Waypoint</type></wpt><wpt lat="45.933228" lon="7.098634"><name>Tournez à droite sur Montée </name><type>Right_turn</type></wpt><wpt lat="45.933357" lon="7.099983"><name>End</name><desc>Auto-generated</desc><type>End</type></wpt><rte><rtept lat="45.933357" lon="7.099993"><ele>1614.91</ele></rtept><rtept lat="45.933254" lon="7.0993"><ele>1607.47</ele></rtept><rtept lat="45.933228" lon="7.098976"><ele>1604.39</ele></rtept><rtept lat="45.93302" lon="7.099023"><ele>1604.02</ele></rtept><rtept lat="45.93238" lon="7.099119"><ele>1602.71</ele></rtept><rtept lat="45.93232" lon="7.099119"><ele>1602.59</ele></rtept><rtept lat="45.9322" lon="7.09909"><ele>1602.34</ele></rtept><rtept lat="45.93207" lon="7.099028"><ele>1601.95</ele></rtept><rtept lat="45.931934" lon="7.098927"><ele>1601.23</ele></rtept><rtept lat="45.931904" lon="7.098887"><ele>1601.0</ele></rtept><rtept lat="45.93186" lon="7.098685"><ele>1599.41</ele></rtept><rtept lat="45.931828" lon="7.098673"><ele>1599.57</ele></rtept><rtept lat="45.931747" lon="7.098612"><ele>1600.07</ele></rtept><rtept lat="45.931705" lon="7.098787"><ele>1605.05</ele></rtept><rtept lat="45.93164" lon="7.098837"><ele>1607.19</ele></rtept><rtept lat="45.93159" lon="7.098816"><ele>1608.11</ele></rtept><rtept lat="45.931404" lon="7.098434"><ele>1611.75</ele></rtept><rtept lat="45.931213" lon="7.098132"><ele>1614.52</ele></rtept><rtept lat="45.931065" lon="7.097967"><ele>1615.95</ele></rtept><rtept lat="45.930996" lon="7.097939"><ele>1617.01</ele></rtept><rtept lat="45.931034" lon="7.098054"><ele>1618.96</ele></rtept><rtept lat="45.93113" lon="7.098262"><ele>1621.75</ele></rtept><rtept lat="45.93115" lon="7.098358"><ele>1622.72</ele></rtept><rtept lat="45.93116" lon="7.098561"><ele>1624.62</ele></rtept><rtept lat="45.93117" lon="7.098643"><ele>1625.31</ele></rtept><rtept lat="45.931248" lon="7.098938"><ele>1627.72</ele></rtept><rtept lat="45.931255" lon="7.099078"><ele>1628.98</ele></rtept><rtept lat="45.93125" lon="7.099223"><ele>1630.31</ele></rtept><rtept lat="45.93125" lon="7.099588"><ele>1633.56</ele></rtept><rtept lat="45.931267" lon="7.09973"><ele>1634.83</ele></rtept><rtept lat="45.93126" lon="7.099858"><ele>1635.97</ele></rtept><rtept lat="45.93123" lon="7.099913"><ele>1636.6</ele></rtept><rtept lat="45.931187" lon="7.099915"><ele>1637.14</ele></rtept><rtept lat="45.931126" lon="7.099863"><ele>1638.05</ele></rtept><rtept lat="45.931038" lon="7.099755"><ele>1639.57</ele></rtept><rtept lat="45.930798" lon="7.099391"><ele>1644.64</ele></rtept><rtept lat="45.93073" lon="7.099371"><ele>1645.56</ele></rtept><rtept lat="45.93061" lon="7.099377"><ele>1647.55</ele></rtept><rtept lat="45.930504" lon="7.099437"><ele>1649.28</ele></rtept><rtept lat="45.930416" lon="7.099456"><ele>1650.47</ele></rtept><rtept lat="45.930325" lon="7.099429"><ele>1651.86</ele></rtept><rtept lat="45.93023" lon="7.099372"><ele>1653.43</ele></rtept><rtept lat="45.930176" lon="7.099324"><ele>1654.4</ele></rtept><rtept lat="45.93002" lon="7.099127"><ele>1657.2</ele></rtept><rtept lat="45.929977" lon="7.099098"><ele>1657.83</ele></rtept><rtept lat="45.929893" lon="7.098997"><ele>1659.37</ele></rtept><rtept lat="45.9298" lon="7.098865"><ele>1661.21</ele></rtept><rtept lat="45.929695" lon="7.098778"><ele>1662.97</ele></rtept><rtept lat="45.929535" lon="7.098675"><ele>1665.45</ele></rtept><rtept lat="45.929348" lon="7.098514"><ele>1668.49</ele></rtept><rtept lat="45.92922" lon="7.098339"><ele>1671.1</ele></rtept><rtept lat="45.929024" lon="7.097975"><ele>1675.86</ele></rtept><rtept lat="45.928932" lon="7.097895"><ele>1677.49</ele></rtept><rtept lat="45.928886" lon="7.097898"><ele>1678.14</ele></rtept><rtept lat="45.92885" lon="7.097951"><ele>1678.97</ele></rtept><rtept lat="45.928875" lon="7.098276"><ele>1682.16</ele></rtept><rtept lat="45.928905" lon="7.098494"><ele>1683.8</ele></rtept><rtept lat="45.92896" lon="7.098784"><ele>1685.16</ele></rtept><rtept lat="45.92902" lon="7.098935"><ele>1686.0</ele></rtept><rtept lat="45.929092" lon="7.099052"><ele>1687.27</ele></rtept><rtept lat="45.929176" lon="7.099162"><ele>1688.55</ele></rtept><rtept lat="45.929207" lon="7.099219"><ele>1689.13</ele></rtept><rtept lat="45.929207" lon="7.099272"><ele>1689.57</ele></rtept><rtept lat="45.9292" lon="7.099285"><ele>1689.7</ele></rtept><rtept lat="45.929184" lon="7.099286"><ele>1689.88</ele></rtept><rtept lat="45.929142" lon="7.099259"><ele>1690.38</ele></rtept><rtept lat="45.929123" lon="7.099236"><ele>1690.63</ele></rtept><rtept lat="45.92904" lon="7.099136"><ele>1691.75</ele></rtept><rtept lat="45.928875" lon="7.098977"><ele>1693.76</ele></rtept><rtept lat="45.92863" lon="7.098688"><ele>1697.08</ele></rtept><rtept lat="45.92852" lon="7.098491"><ele>1699.09</ele></rtept><rtept lat="45.928463" lon="7.098407"><ele>1699.98</ele></rtept><rtept lat="45.928402" lon="7.098337"><ele>1700.77</ele></rtept><rtept lat="45.92832" lon="7.09828"><ele>1701.65</ele></rtept><rtept lat="45.92828" lon="7.098296"><ele>1702.09</ele></rtept><rtept lat="45.928257" lon="7.09832"><ele>1702.36</ele></rtept><rtept lat="45.928257" lon="7.098349"><ele>1702.56</ele></rtept><rtept lat="45.928333" lon="7.098506"><ele>1703.9</ele></rtept><rtept lat="45.928406" lon="7.098707"><ele>1705.54</ele></rtept><rtept lat="45.92853" lon="7.098857"><ele>1707.31</ele></rtept><rtept lat="45.928677" lon="7.099109"><ele>1710.07</ele></rtept><rtept lat="45.9288" lon="7.099344"><ele>1712.05</ele></rtept><rtept lat="45.928913" lon="7.099506"><ele>1713.54</ele></rtept><rtept lat="45.929012" lon="7.099732"><ele>1715.55</ele></rtept><rtept lat="45.929203" lon="7.099928"><ele>1718.0</ele></rtept><rtept lat="45.92925" lon="7.099989"><ele>1718.5</ele></rtept><rtept lat="45.929306" lon="7.100135"><ele>1719.59</ele></rtept><rtept lat="45.929325" lon="7.100233"><ele>1720.57</ele></rtept><rtept lat="45.929314" lon="7.100301"><ele>1721.21</ele></rtept><rtept lat="45.929283" lon="7.100344"><ele>1722.16</ele></rtept><rtept lat="45.929245" lon="7.100341"><ele>1723.06</ele></rtept><rtept lat="45.92921" lon="7.100297"><ele>1723.66</ele></rtept><rtept lat="45.92916" lon="7.100211"><ele>1724.23</ele></rtept><rtept lat="45.92911" lon="7.100142"><ele>1724.9</ele></rtept><rtept lat="45.92905" lon="7.100091"><ele>1725.8</ele></rtept><rtept lat="45.92884" lon="7.100034"><ele>1728.14</ele></rtept><rtept lat="45.928795" lon="7.099988"><ele>1728.64</ele></rtept><rtept lat="45.928677" lon="7.099743"><ele>1730.86</ele></rtept><rtept lat="45.928646" lon="7.099646"><ele>1731.61</ele></rtept><rtept lat="45.928596" lon="7.09955"><ele>1732.48</ele></rtept><rtept lat="45.92855" lon="7.099489"><ele>1733.12</ele></rtept><rtept lat="45.92849" lon="7.099484"><ele>1733.78</ele></rtept><rtept lat="45.92846" lon="7.099502"><ele>1734.09</ele></rtept><rtept lat="45.92842" lon="7.099537"><ele>1734.59</ele></rtept><rtept lat="45.92839" lon="7.099584"><ele>1735.04</ele></rtept><rtept lat="45.92838" lon="7.099637"><ele>1735.43</ele></rtept><rtept lat="45.928406" lon="7.099731"><ele>1736.15</ele></rtept><rtept lat="45.92864" lon="7.100214"><ele>1740.05</ele></rtept><rtept lat="45.928825" lon="7.100679"><ele>1743.73</ele></rtept><rtept lat="45.928856" lon="7.100764"><ele>1744.39</ele></rtept><rtept lat="45.928883" lon="7.100816"><ele>1744.85</ele></rtept><rtept lat="45.92898" lon="7.100903"><ele>1746.05</ele></rtept><rtept lat="45.929142" lon="7.101126"><ele>1748.44</ele></rtept><rtept lat="45.929226" lon="7.101262"><ele>1749.69</ele></rtept><rtept lat="45.929295" lon="7.10141"><ele>1751.05</ele></rtept><rtept lat="45.929382" lon="7.101544"><ele>1752.6</ele></rtept><rtept lat="45.929485" lon="7.101673"><ele>1754.16</ele></rtept><rtept lat="45.929604" lon="7.101888"><ele>1756.73</ele></rtept><rtept lat="45.92966" lon="7.101972"><ele>1757.15</ele></rtept><rtept lat="45.929688" lon="7.102035"><ele>1758.39</ele></rtept><rtept lat="45.92968" lon="7.102079"><ele>1759.04</ele></rtept><rtept lat="45.929657" lon="7.102085"><ele>1759.4</ele></rtept><rtept lat="45.92958" lon="7.10203"><ele>1760.31</ele></rtept><rtept lat="45.929462" lon="7.101909"><ele>1761.78</ele></rtept><rtept lat="45.929348" lon="7.101819"><ele>1763.18</ele></rtept><rtept lat="45.929222" lon="7.101777"><ele>1764.55</ele></rtept><rtept lat="45.92916" lon="7.101767"><ele>1765.25</ele></rtept><rtept lat="45.929077" lon="7.101704"><ele>1766.35</ele></rtept><rtept lat="45.92878" lon="7.101527"><ele>1769.64</ele></rtept><rtept lat="45.928665" lon="7.101484"><ele>1770.85</ele></rtept><rtept lat="45.928497" lon="7.101398"><ele>1772.67</ele></rtept><rtept lat="45.92838" lon="7.10135"><ele>1773.91</ele></rtept><rtept lat="45.928307" lon="7.101266"><ele>1774.86</ele></rtept><rtept lat="45.92826" lon="7.101238"><ele>1775.33</ele></rtept><rtept lat="45.9281" lon="7.101201"><ele>1776.99</ele></rtept><rtept lat="45.92798" lon="7.101202"><ele>1778.3</ele></rtept><rtept lat="45.92785" lon="7.101225"><ele>1779.78</ele></rtept><rtept lat="45.927773" lon="7.101253"><ele>1780.63</ele></rtept><rtept lat="45.927578" lon="7.10137"><ele>1783.06</ele></rtept><rtept lat="45.927444" lon="7.101435"><ele>1784.78</ele></rtept><rtept lat="45.927418" lon="7.101462"><ele>1785.19</ele></rtept><rtept lat="45.92741" lon="7.101488"><ele>1785.45</ele></rtept><rtept lat="45.927414" lon="7.101532"><ele>1785.84</ele></rtept><rtept lat="45.92744" lon="7.101552"><ele>1786.2</ele></rtept><rtept lat="45.927467" lon="7.101553"><ele>1786.55</ele></rtept><rtept lat="45.927643" lon="7.101543"><ele>1788.62</ele></rtept><rtept lat="45.92775" lon="7.101582"><ele>1789.96</ele></rtept><rtept lat="45.92815" lon="7.101897"><ele>1795.42</ele></rtept><rtept lat="45.928192" lon="7.101925"><ele>1796.01</ele></rtept><rtept lat="45.928314" lon="7.101976"><ele>1797.52</ele></rtept><rtept lat="45.928364" lon="7.102009"><ele>1798.13</ele></rtept><rtept lat="45.928596" lon="7.102236"><ele>1801.34</ele></rtept><rtept lat="45.928616" lon="7.102268"><ele>1801.73</ele></rtept><rtept lat="45.928616" lon="7.102318"><ele>1802.21</ele></rtept><rtept lat="45.928604" lon="7.102343"><ele>1802.51</ele></rtept><rtept lat="45.928574" lon="7.102355"><ele>1803.0</ele></rtept><rtept lat="45.928417" lon="7.10226"><ele>1805.21</ele></rtept><rtept lat="45.928352" lon="7.102252"><ele>1805.57</ele></rtept><rtept lat="45.928314" lon="7.102252"><ele>1805.99</ele></rtept><rtept lat="45.928116" lon="7.102351"><ele>1808.91</ele></rtept><rtept lat="45.92777" lon="7.102303"><ele>1813.02</ele></rtept><rtept lat="45.927746" lon="7.10231"><ele>1813.38</ele></rtept><rtept lat="45.927395" lon="7.10229"><ele>1815.94</ele></rtept><rtept lat="45.927124" lon="7.102382"><ele>1815.39</ele></rtept><rtept lat="45.926495" lon="7.102705"><ele>1811.99</ele></rtept><rtept lat="45.926056" lon="7.103051"><ele>1808.3</ele></rtept><rtept lat="45.925804" lon="7.103275"><ele>1806.87</ele></rtept><rtept lat="45.92548" lon="7.103566"><ele>1804.99</ele></rtept><rtept lat="45.92528" lon="7.103699"><ele>1804.13</ele></rtept><rtept lat="45.92519" lon="7.103735"><ele>1803.73</ele></rtept><rtept lat="45.924927" lon="7.103953"><ele>1802.44</ele></rtept><rtept lat="45.9248" lon="7.104193"><ele>1801.01</ele></rtept><rtept lat="45.92473" lon="7.104366"><ele>1799.65</ele></rtept><rtept lat="45.92467" lon="7.104454"><ele>1798.8</ele></rtept><rtept lat="45.924385" lon="7.104477"><ele>1795.11</ele></rtept><rtept lat="45.924232" lon="7.104382"><ele>1792.46</ele></rtept><rtept lat="45.924107" lon="7.104496"><ele>1789.75</ele></rtept><rtept lat="45.924034" lon="7.104514"><ele>1788.28</ele></rtept><rtept lat="45.92374" lon="7.104623"><ele>1781.33</ele></rtept><rtept lat="45.92345" lon="7.104796"><ele>1773.76</ele></rtept><rtept lat="45.92339" lon="7.104885"><ele>1771.45</ele></rtept><rtept lat="45.923378" lon="7.104926"><ele>1770.64</ele></rtept><rtept lat="45.923244" lon="7.10502"><ele>1766.83</ele></rtept><rtept lat="45.923164" lon="7.105111"><ele>1764.35</ele></rtept><rtept lat="45.923054" lon="7.105154"><ele>1761.52</ele></rtept><rtept lat="45.922974" lon="7.105153"><ele>1759.66</ele></rtept><rtept lat="45.92281" lon="7.104983"><ele>1755.09</ele></rtept><rtept lat="45.922672" lon="7.105"><ele>1752.0</ele></rtept><rtept lat="45.922546" lon="7.105051"><ele>1749.22</ele></rtept><rtept lat="45.92241" lon="7.105126"><ele>1746.13</ele></rtept><rtept lat="45.922367" lon="7.105181"><ele>1744.89</ele></rtept><rtept lat="45.922302" lon="7.105178"><ele>1743.55</ele></rtept><rtept lat="45.922245" lon="7.10507"><ele>1741.73</ele></rtept><rtept lat="45.922153" lon="7.105029"><ele>1739.96</ele></rtept><rtept lat="45.921993" lon="7.104991"><ele>1736.97</ele></rtept><rtept lat="45.921852" lon="7.105035"><ele>1734.39</ele></rtept><rtept lat="45.921684" lon="7.105113"><ele>1731.14</ele></rtept><rtept lat="45.92142" lon="7.105325"><ele>1726.07</ele></rtept><rtept lat="45.921307" lon="7.105441"><ele>1723.91</ele></rtept><rtept lat="45.921227" lon="7.105456"><ele>1722.73</ele></rtept><rtept lat="45.920982" lon="7.105563"><ele>1720.36</ele></rtept><rtept lat="45.920856" lon="7.105557"><ele>1720.14</ele></rtept><rtept lat="45.91969" lon="7.106252"><ele>1720.25</ele></rtept><rtept lat="45.91954" lon="7.1063"><ele>1718.49</ele></rtept><rtept lat="45.91948" lon="7.106272"><ele>1717.51</ele></rtept><rtept lat="45.91945" lon="7.106292"><ele>1716.98</ele></rtept><rtept lat="45.919388" lon="7.106267"><ele>1716.12</ele></rtept><rtept lat="45.91933" lon="7.106288"><ele>1715.29</ele></rtept><rtept lat="45.919308" lon="7.106273"><ele>1714.91</ele></rtept><rtept lat="45.91923" lon="7.106275"><ele>1713.93</ele></rtept><rtept lat="45.919155" lon="7.106304"><ele>1712.99</ele></rtept><rtept lat="45.919083" lon="7.106245"><ele>1712.05</ele></rtept><rtept lat="45.919" lon="7.106227"><ele>1711.11</ele></rtept><rtept lat="45.918987" lon="7.106186"><ele>1710.75</ele></rtept><rtept lat="45.918915" lon="7.106146"><ele>1709.85</ele></rtept><rtept lat="45.918873" lon="7.106133"><ele>1709.37</ele></rtept><rtept lat="45.91881" lon="7.106139"><ele>1708.7</ele></rtept><rtept lat="45.918713" lon="7.106071"><ele>1707.62</ele></rtept><rtept lat="45.918648" lon="7.106005"><ele>1706.93</ele></rtept><rtept lat="45.91849" lon="7.105908"><ele>1705.55</ele></rtept><rtept lat="45.918377" lon="7.105772"><ele>1704.53</ele></rtept><rtept lat="45.918243" lon="7.105699"><ele>1703.69</ele></rtept><rtept lat="45.918213" lon="7.10566"><ele>1703.44</ele></rtept><rtept lat="45.918156" lon="7.105619"><ele>1703.09</ele></rtept><rtept lat="45.91811" lon="7.105606"><ele>1702.86</ele></rtept><rtept lat="45.91807" lon="7.105581"><ele>1702.67</ele></rtept><rtept lat="45.918022" lon="7.105521"><ele>1702.4</ele></rtept><rtept lat="45.91792" lon="7.105485"><ele>1702.04</ele></rtept><rtept lat="45.917828" lon="7.105453"><ele>1701.73</ele></rtept><rtept lat="45.91763" lon="7.105345"><ele>1701.32</ele></rtept><rtept lat="45.91759" lon="7.10529"><ele>1701.21</ele></rtept><rtept lat="45.917473" lon="7.105204"><ele>1700.89</ele></rtept><rtept lat="45.91744" lon="7.105169"><ele>1700.78</ele></rtept><rtept lat="45.917374" lon="7.105136"><ele>1700.59</ele></rtept><rtept lat="45.91729" lon="7.10514"><ele>1700.42</ele></rtept><rtept lat="45.91724" lon="7.10513"><ele>1700.35</ele></rtept><rtept lat="45.916977" lon="7.104999"><ele>1700.08</ele></rtept><rtept lat="45.916954" lon="7.104953"><ele>1699.91</ele></rtept><rtept lat="45.916927" lon="7.104929"><ele>1699.76</ele></rtept><rtept lat="45.916904" lon="7.104927"><ele>1699.61</ele></rtept><rtept lat="45.91686" lon="7.104902"><ele>1699.32</ele></rtept><rtept lat="45.9168" lon="7.104841"><ele>1699.1</ele></rtept><rtept lat="45.916702" lon="7.104819"><ele>1699.19</ele></rtept><rtept lat="45.916573" lon="7.104702"><ele>1698.22</ele></rtept><rtept lat="45.916206" lon="7.104867"><ele>1702.42</ele></rtept><rtept lat="45.91599" lon="7.104906"><ele>1704.39</ele></rtept><rtept lat="45.915688" lon="7.104994"><ele>1706.82</ele></rtept><rtept lat="45.915646" lon="7.104838"><ele>1704.4</ele></rtept><rtept lat="45.91567" lon="7.104467"><ele>1697.03</ele></rtept><rtept lat="45.91565" lon="7.104413"><ele>1695.86</ele></rtept><rtept lat="45.915596" lon="7.104375"><ele>1694.28</ele></rtept><rtept lat="45.915466" lon="7.104395"><ele>1690.47</ele></rtept><rtept lat="45.915398" lon="7.104379"><ele>1688.84</ele></rtept><rtept lat="45.91549" lon="7.104215"><ele>1685.33</ele></rtept><rtept lat="45.915497" lon="7.104034"><ele>1686.52</ele></rtept><rtept lat="45.915913" lon="7.103655"><ele>1682.22</ele></rtept><rtept lat="45.916103" lon="7.103579"><ele>1680.81</ele></rtept><rtept lat="45.916317" lon="7.103493"><ele>1679.21</ele></rtept><rtept lat="45.916405" lon="7.103303"><ele>1678.02</ele></rtept><rtept lat="45.91645" lon="7.103152"><ele>1677.19</ele></rtept><rtept lat="45.91653" lon="7.102984"><ele>1676.76</ele></rtept><rtept lat="45.916588" lon="7.102905"><ele>1676.43</ele></rtept><rtept lat="45.91675" lon="7.102761"><ele>1675.15</ele></rtept><rtept lat="45.91685" lon="7.102709"><ele>1675.23</ele></rtept><rtept lat="45.91696" lon="7.10262"><ele>1675.33</ele></rtept><rtept lat="45.917046" lon="7.102502"><ele>1675.44</ele></rtept><rtept lat="45.917095" lon="7.102477"><ele>1675.48</ele></rtept><rtept lat="45.917908" lon="7.1025724"><ele>1664.14</ele></rtept><rtept lat="45.91858" lon="7.1024756"><ele>1658.49</ele></rtept><rtept lat="45.919174" lon="7.102359"><ele>1655.21</ele></rtept><rtept lat="45.91958" lon="7.1020284"><ele>1649.45</ele></rtept><rtept lat="45.920036" lon="7.1013355"><ele>1649.89</ele></rtept><rtept lat="45.920013" lon="7.101297"><ele>1649.89</ele></rtept><rtept lat="45.920246" lon="7.101012"><ele>1647.28</ele></rtept><rtept lat="45.920414" lon="7.100764"><ele>1645.18</ele></rtept><rtept lat="45.920467" lon="7.100731"><ele>1644.72</ele></rtept><rtept lat="45.920486" lon="7.100721"><ele>1644.57</ele></rtept><rtept lat="45.9208" lon="7.100664"><ele>1642.24</ele></rtept><rtept lat="45.921257" lon="7.100528"><ele>1639.52</ele></rtept><rtept lat="45.92145" lon="7.100483"><ele>1638.91</ele></rtept><rtept lat="45.921623" lon="7.100408"><ele>1638.6</ele></rtept><rtept lat="45.92204" lon="7.100035"><ele>1637.32</ele></rtept><rtept lat="45.92215" lon="7.099935"><ele>1636.98</ele></rtept><rtept lat="45.92238" lon="7.099814"><ele>1636.1</ele></rtept><rtept lat="45.922688" lon="7.099444"><ele>1633.29</ele></rtept><rtept lat="45.922863" lon="7.099183"><ele>1631.24</ele></rtept><rtept lat="45.923016" lon="7.099066"><ele>1630.04</ele></rtept><rtept lat="45.923153" lon="7.098939"><ele>1628.95</ele></rtept><rtept lat="45.92328" lon="7.098756"><ele>1627.7</ele></rtept><rtept lat="45.92328" lon="7.098755"><ele>1627.7</ele></rtept><rtept lat="45.923283" lon="7.098747"><ele>1627.64</ele></rtept><rtept lat="45.92343" lon="7.098557"><ele>1626.31</ele></rtept><rtept lat="45.92359" lon="7.098307"><ele>1625.2</ele></rtept><rtept lat="45.923782" lon="7.098065"><ele>1624.18</ele></rtept><rtept lat="45.923912" lon="7.097882"><ele>1623.5</ele></rtept><rtept lat="45.92403" lon="7.097753"><ele>1622.92</ele></rtept><rtept lat="45.92427" lon="7.097615"><ele>1621.89</ele></rtept><rtept lat="45.925186" lon="7.096765"><ele>1617.79</ele></rtept><rtept lat="45.92636" lon="7.0959945"><ele>1616.94</ele></rtept><rtept lat="45.92743" lon="7.095145"><ele>1620.45</ele></rtept><rtept lat="45.927956" lon="7.0947614"><ele>1619.43</ele></rtept><rtept lat="45.928635" lon="7.0948515"><ele>1618.42</ele></rtept><rtept lat="45.92977" lon="7.095119"><ele>1603.82</ele></rtept><rtept lat="45.930023" lon="7.095219"><ele>1601.77</ele></rtept><rtept lat="45.930515" lon="7.0956793"><ele>1599.59</ele></rtept><rtept lat="45.930523" lon="7.095674"><ele>1599.59</ele></rtept><rtept lat="45.930748" lon="7.09627"><ele>1599.04</ele></rtept><rtept lat="45.9308" lon="7.096516"><ele>1598.83</ele></rtept><rtept lat="45.930916" lon="7.096771"><ele>1598.59</ele></rtept><rtept lat="45.930973" lon="7.096884"><ele>1598.48</ele></rtept><rtept lat="45.93104" lon="7.097015"><ele>1598.35</ele></rtept><rtept lat="45.931194" lon="7.097197"><ele>1598.15</ele></rtept><rtept lat="45.93117" lon="7.097433"><ele>1598.43</ele></rtept><rtept lat="45.931175" lon="7.097463"><ele>1598.44</ele></rtept><rtept lat="45.93119" lon="7.097494"><ele>1598.46</ele></rtept><rtept lat="45.93128" lon="7.097602"><ele>1598.52</ele></rtept><rtept lat="45.931458" lon="7.097857"><ele>1598.67</ele></rtept><rtept lat="45.931767" lon="7.098394"><ele>1598.96</ele></rtept><rtept lat="45.931854" lon="7.098494"><ele>1599.03</ele></rtept><rtept lat="45.932" lon="7.098572"><ele>1599.1</ele></rtept><rtept lat="45.932064" lon="7.098623"><ele>1599.14</ele></rtept><rtept lat="45.93211" lon="7.098688"><ele>1599.18</ele></rtept><rtept lat="45.932156" lon="7.098702"><ele>1599.28</ele></rtept><rtept lat="45.932503" lon="7.098684"><ele>1599.9</ele></rtept><rtept lat="45.933037" lon="7.098657"><ele>1600.87</ele></rtept><rtept lat="45.933228" lon="7.098634"><ele>1601.55</ele></rtept><rtept lat="45.933228" lon="7.098976"><ele>1604.39</ele></rtept><rtept lat="45.933254" lon="7.0993"><ele>1607.47</ele></rtept><rtept lat="45.933357" lon="7.099983"><ele>1614.8</ele></rtept></rte></gpx>