<?xml version="1.0" encoding="UTF-8" standalone="no"?><gpx xmlns="http://www.topografix.com/GPX/1/1" xmlns:xsi="http://www.w3.org/2001/XMLSchema-instance" creator="Sports Tracker" version="1.1" xsi:schemaLocation="http://www.topografix.com/GPX/1/1 http://www.topografix.com/GPX/1/1/gpx.xsd"><metadata><name>Natation champex</name><author><name>valentine300</name></author></metadata><wpt lat="46.02754" lon="7.1201425"><name>Begin</name><desc>Auto-generated</desc><type>Begin</type></wpt><wpt lat="46.028366" lon="7.1179314"><name>Waypoint 1</name><desc>Auto-generated</desc><type>Waypoint</type></wpt><wpt lat="46.029408" lon="7.1165633"><name>Waypoint 2</name><desc>Auto-generated</desc><type>Waypoint</type></wpt><wpt lat="46.028282" lon="7.114679"><name>Waypoint 3</name><desc>Auto-generated</desc><type>Waypoint</type></wpt><wpt lat="46.0272" lon="7.1157265"><name>Waypoint 4</name><desc>Auto-generated</desc><type>Waypoint</type></wpt><wpt lat="46.027443" lon="7.1199217"><name>Waypoint 5</name><desc>Auto-generated</desc><type>Waypoint</type></wpt><wpt lat="46.02831" lon="7.1181664"><name>Waypoint 6</name><desc>Auto-generated</desc><type>Waypoint</type></wpt><wpt lat="46.029533" lon="7.116661"><name>Waypoint 7</name><desc>Auto-generated</desc><type>Waypoint</type></wpt><wpt lat="46.028156" lon="7.114555"><name>Waypoint 8</name><desc>Auto-generated</desc><type>Waypoint</type></wpt><wpt lat="46.027077" lon="7.1159525"><name>Waypoint 9</name><desc>Auto-generated</desc><type>Waypoint</type></wpt><wpt lat="46.02737" lon="7.1201854"><name>End</name><desc>Auto-generated</desc><type>End</type></wpt><rte><rtept lat="46.02754" lon="7.1201425"><ele>1468.76</ele></rtept><rtept lat="46.028366" lon="7.1179314"><ele>1467.5</ele></rtept><rtept lat="46.029408" lon="7.1165633"><ele>1467.11</ele></rtept><rtept lat="46.028282" lon="7.114679"><ele>1468.53</ele></rtept><rtept lat="46.0272" lon="7.1157265"><ele>1468.41</ele></rtept><rtept lat="46.027443" lon="7.1199217"><ele>1468.56</ele></rtept><rtept lat="46.02831" lon="7.1181664"><ele>1467.57</ele></rtept><rtept lat="46.029533" lon="7.116661"><ele>1467.06</ele></rtept><rtept lat="46.028156" lon="7.114555"><ele>1468.85</ele></rtept><rtept lat="46.027077" lon="7.1159525"><ele>1467.94</ele></rtept><rtept lat="46.02737" lon="7.1201854"><ele>1468.46</ele></rtept></rte></gpx>